rk	ufi	uni	full_name	nt	lat_dd	long_dd	efctv_dt	term_dt_f	term_dt_n	desig_cd	fc	cc_ft	adm1	ft_link	name_rank	lang_cd	transl_cd	script_cd	name_link	cc_nm	generic	full_nm_nd	sort_gen	sort_name	lat_dms	long_dms	mgrs	mod_dt_ft	mod_dt_nm	dialect_cd	display	gis_notes
5	-2088718	-2900570	Amingaon	N	26.2	91.666667				RYD	R	IND	IN-AS		1							Amingaon		AMINGAON	26:12:00	91:40:00	46RCP6678398517	2005-08-18T00:00:00.000Z	2005-08-18T00:00:00.000Z		1,2,3,4,5	
5	79032	13782939	Kothīya	N	28.000104	74.971934				RR	R	IND	IN-RJ		1							Kothiya		KOTHIYA	28:00:00	74:58:19	43RDL9724097214	2015-01-16T00:00:00.000Z	2015-01-16T00:00:00.000Z		1,2	
5	79032	97215	Khono	V	28.000104	74.971934				RR	R	IND	IN-RJ									Khono		KHONO	28:00:00	74:58:19	43RDL9724097214	2015-01-16T00:00:00.000Z	2012-05-18T00:00:00.000Z		1,2	
5	6107238	6117074	Grand Trunk Road	N	31.58369	74.330467				RD	R	IND,PAK	NULL		1	eng				PAK		Grand Trunk Road		GRANDTRUNKROAD	31:35:01	74:19:50	43RDQ3647494487	2017-03-01T00:00:00.000Z	2017-03-01T00:00:00.000Z		1,2	
5	6205781	6221776	Nandni Tunnel	N	32.856639	74.959219				TNL	R	IND	IN-JK		1							Nandni Tunnel		NANDNITUNNEL	32:51:24	74:57:33	43SDS9618435395	2020-07-27T00:00:00.000Z	1993-09-01T00:00:00.000Z		1,2,3	
5	10448980	10966726	Central Railway Bīna Katni Branch	N	24.149919	78.249467				RR	R	IND	IN-MP		1							Central Railway Bina Katni Branch		CENTRALRAILWAYBINAKATNIBRANCH	24:09:00	78:14:58	44RKM2049373571	2015-07-21T00:00:00.000Z	2009-03-11T00:00:00.000Z		1,2,3	
5	10449084	10966830	Western Railway Bīna Kota Section	N	24.195737	78.193312				RR	R	IND	IN-MP		1							Western Railway Bina Kota Section		WESTERNRAILWAYBINAKOTASECTION	24:11:45	78:11:36	44RKM1488678761	2015-07-21T00:00:00.000Z	2009-03-11T00:00:00.000Z		1,2,3	
5	10826726	11696736	Jessore Road	N	22.841034	88.654097				RD	R	BGD,IND	NULL		1	ben						Jessore Road		JESSOREROAD	22:50:28	88:39:15	45QXF6972926874	2012-06-08T00:00:00.000Z	2010-07-01T00:00:00.000Z		1,2,3	
5	12333555	15284160	Northern Railway Bikaner Ratangarh Chord	N	28.071229	74.000089				RR	R	IND	IN-RJ		1							Northern Railway Bikaner Ratangarh Chord	RAILWAY	NORTHERNRAILWAYBIKANERRATANGARHCHORD	28:04:16	74:00:00	43RDM0174805496	2014-10-06T00:00:00.000Z	2015-01-09T00:00:00.000Z		1,2	
5	12348803	15306220	Northern Railway Bhagu Extension	N	28.000311	74.619062				RR	R	IND	IN-RJ		1							Northern Railway Bhagu Extension	RAILWAY	NORTHERNRAILWAYBHAGUEXTENSION	28:00:01	74:37:09	43RDL6254597295	2014-10-15T00:00:00.000Z	2015-01-16T00:00:00.000Z		1,2	
5	12348804	15306221	Northern Railway Hisār Extension	N	28.072355	74.626759				RR	R	IND	IN-RJ		1							Northern Railway Hisar Extension	RAILWAY	NORTHERNRAILWAYHISAREXTENSION	28:04:20	74:37:36	43RDM6332605274	2014-10-15T00:00:00.000Z	2015-01-16T00:00:00.000Z		1,2	
5	12348802	15306219	Northern Railway Sardārshahr Extension	N	28.075584	74.603162				RR	R	IND	IN-RJ		1							Northern Railway Sardarshahr Extension	RAILWAY	NORTHERNRAILWAYSARDARSHAHREXTENSION	28:04:32	74:36:11	43RDM6100905639	2014-10-15T00:00:00.000Z	2015-01-16T00:00:00.000Z		1,2	
5	12353111	15315301	Western Railway Sīkar Chūru Section	N	28.000104	74.971934				RR	R	IND	IN-RJ		1						Railway	Western Railway Sikar Churu Section	RAILWAY	WESTERNRAILWAYSIKARCHURUSECTION	28:00:00	74:58:19	43RDL9724097214	2014-10-20T00:00:00.000Z	2015-01-16T00:00:00.000Z		1,2	
5	12355564	15319917	Khābra Kalān	N	29.345322	75.382478				RR	R	IND	IN-HR		1							Khabra Kalan		KHABRAKALAN	29:20:43	75:22:57	43REN3712946306	2015-01-16T00:00:00.000Z	2015-01-16T00:00:00.000Z		1,2	
5	12355564	15319912	Khābra Kalān Railroad Station	N	29.345322	75.382478				RR	R	IND	IN-HR		2							Khabra Kalan Railroad Station	RAILROADSTATION	KHABRAKALANRAILROADSTATION	29:20:43	75:22:57	43REN3712946306	2015-01-16T00:00:00.000Z	2021-02-12T00:00:00.000Z		1,2	
5	12359028	15331864	Northern Railway Rewāri Fāzilka Section	N	29.147685	75.733912				RR	R	IND	IN-HR		1							Northern Railway Rewari Fazilka Section	RAILWAY	NORTHERNRAILWAYREWARIFAZILKASECTION	29:08:52	75:44:02	43REN7138224571	2014-10-29T00:00:00.000Z	2015-01-16T00:00:00.000Z		1,2	
5	12359931	15333138	Northen Railway Jākhal Hisār Section	N	29.388894	75.898193				RR	R	IND	IN-HR		1							Northen Railway Jakhal Hisar Section	RAILWAY	NORTHENRAILWAYJAKHALHISARSECTION	29:23:20	75:53:53	43REN8715651408	2014-10-30T00:00:00.000Z	2015-01-16T00:00:00.000Z		1,2	
5	12359874	15333080	Northern Railway Jullundur Doāb Extension	N	29.250147	75.824052				RR	R	IND	IN-HR		1							Northern Railway Jullundur Doab Extension	RAILWAY	NORTHERNRAILWAYJULLUNDURDOABEXTENSION	29:15:01	75:49:27	43REN8007035982	2014-10-30T00:00:00.000Z	2015-01-16T00:00:00.000Z		1,2	
5	12392490	15394841	National Highway Number Eight	N	28.000061	76.432462				RD	R	IND	IN-RJ		1							National Highway Number Eight	HIGHWAY	NATIONALHIGHWAYNUMBEREIGHT	28:00:00	76:25:57	43RFL4085198036	2014-11-26T00:00:00.000Z	2014-11-26T00:00:00.000Z		1,2	
5	12392368	15394622	Northern Railway Rewāri Fāzilka Section	N	28.639747	76.24982				RR	R	IND	IN-HR		1							Northern Railway Rewari Fazilka Section	RAILWAY	NORTHERNRAILWAYREWARIFAZILKASECTION	28:38:23	76:14:59	43RFM2215768712	2014-11-26T00:00:00.000Z	2014-11-26T00:00:00.000Z		1,2	
5	12392520	15394871	Western Railway Rewāri Phulera Chord	N	28.098868	76.250056				RR	R	IND	IN-HR		1							Western Railway Rewari Phulera Chord	RAILWAY	WESTERNRAILWAYREWARIPHULERACHORD	28:05:56	76:15:00	43RFM2280208786	2014-11-26T00:00:00.000Z	2014-11-26T00:00:00.000Z		1,2	
5	12398404	15406477	Northern Railway Rohtak Gohāna Branch	N	28.887842	76.588351				RR	R	IND	IN-HR		1							Northern Railway Rohtak Gohana Branch	RAILWAY	NORTHERNRAILWAYROHTAKGOHANABRANCH	28:53:16	76:35:18	43RFM5488396597	2014-12-02T00:00:00.000Z	2014-12-02T00:00:00.000Z		1,2	
5	12402558	15414719	Western Railway Main Line	N	28.000231	76.552719				RR	R	IND	IN-HR		1							Western Railway Main Line	RAILWAY	WESTERNRAILWAYMAINLINE	28:00:01	76:33:10	43RFL5267798199	2014-12-02T00:00:00.000Z	2014-12-02T00:00:00.000Z		1,2	
5	12402557	15414718	Northern Railway Rewāri Fāzilka Section	N	28.209245	76.615994				RR	R	IND	IN-HR		1							Northern Railway Rewari Fazilka Section	RAILWAY	NORTHERNRAILWAYREWARIFAZILKASECTION	28:12:33	76:36:58	43RFM5859221439	2014-12-02T00:00:00.000Z	2014-12-02T00:00:00.000Z		1,2	
5	12406623	15420856	Northern Railway Garhi Harsāru Farrukhnagar Branch	N	28.468635	76.821058				RR	R	IND	IN-HR		1							Northern Railway Garhi Harsaru Farrukhnagar Branch	BRANCH	NORTHERNRAILWAYGARHIHARSARUFARRUKHNAGARBRANCH	28:28:07	76:49:16	43RFM7828750468	2014-12-03T00:00:00.000Z	2014-12-03T00:00:00.000Z		1,2	
5	12513036	15611580	Northern Railway	N	29.000211	73.850873				RR	R	IND	IN-RJ		1							Northern Railway	RAILWAY	NORTHERNRAILWAY	29:00:01	73:51:03	43RCN8807108553	2015-01-08T00:00:00.000Z	2015-01-22T00:00:00.000Z		1,2	
5	12519837	15622386	Bombay Baroda and Central India Railway	N	30.409215	74.018431				RR	R	IND	IN-PB		1							Bombay Baroda and Central India Railway	RAILWAY	BOMBAYBARODAANDCENTRALINDIARAILWAY	30:24:33	74:01:06	43RDP0571864540	2015-01-09T00:00:00.000Z	2015-01-22T00:00:00.000Z		1,2	
5	12522067	15626707	S P Railway Ludhiāna Extension	N	30.401592	73.999976				RR	R	IND	IN-PB		1							S P Railway Ludhiana Extension	EXTENSION	SPRAILWAYLUDHIANAEXTENSION	30:24:06	74:00:00	43RDP0393863711	2015-01-12T00:00:00.000Z	2015-01-22T00:00:00.000Z		1,2	
5	12606970	15785941	Northern Railway Haridwār Dehra Dūn Branch	N	29.759629	78.013773				RR	R	IND	IN-UT		1							Northern Railway Haridwar Dehra Dun Branch	RAILWAY	NORTHERNRAILWAYHARIDWARDEHRADUNBRANCH	29:45:35	78:00:50	44RKT1122795888	2015-02-20T00:00:00.000Z	2015-03-09T00:00:00.000Z		1,2	
5	12605696	15783585	Western Railway Sawāi Mādhopur Lahāru Section	N	28.005651	75.250053				RR	R	IND	IN-RJ		1							Western Railway Sawai Madhopur Laharu Section	RAILWAY	WESTERNRAILWAYSAWAIMADHOPURLAHARUSECTION	28:00:20	75:15:00	43REL2458597854	2015-02-19T00:00:00.000Z	2015-03-09T00:00:00.000Z		1,2	
5	12604792	15781807	Northern Railway Hanūmāngarh Sādulpur Branch	N	28.662429	75.40857				RR	R	IND	IN-RJ		1							Northern Railway Hanumangarh Sadulpur Branch	RAILWAY	NORTHERNRAILWAYHANUMANGARHSADULPURBRANCH	28:39:45	75:24:31	43REM3992370655	2015-02-19T00:00:00.000Z	2015-03-09T00:00:00.000Z		1,2	
5	12604857	15781872	Northern Railway Hisār Extension	N	28.662936	75.408853				RR	R	IND	IN-RJ		1							Northern Railway Hisar Extension	RAILWAY	NORTHERNRAILWAYHISAREXTENSION	28:39:47	75:24:32	43REM3995170711	2015-02-19T00:00:00.000Z	2015-03-09T00:00:00.000Z		1,2	
5	12628292	15823170	Atriya Bāndh	N	27.635941	76.822614				RD	R	IND	IN-RJ		1							Atriya Bandh		ATRIYABANDH	27:38:09	76:49:21	43RFL7982058202	2015-02-26T00:00:00.000Z	2015-02-26T00:00:00.000Z		1,2	
5	12628190	15823038	Kotla Bāndh	N	27.913858	76.956484				RD	R	IND	IN-HR		1						Bāndh	Kotla Bandh	BANDH	KOTLABANDH	27:54:50	76:57:23	43RFL9254089199	2015-02-26T00:00:00.000Z	2015-02-26T00:00:00.000Z		1,2	
5	12636021	15834842	Northern Railway Main Line	N	29.999925	77.47031				RR	R	IND	IN-UP		1							Northern Railway Main Line	RAILWAY	NORTHERNRAILWAYMAINLINE	30:00:00	77:28:13	43RGP3829321347	2015-03-03T00:00:00.000Z	2015-03-03T00:00:00.000Z		1,2	
5	12639415	15842212	Western Railway Bīna Kota Section	N	25.231931	75.893337				RR	R	IND	IN-RJ		1							Western Railway Bina Kota Section	SECTION	WESTERNRAILWAYBINAKOTASECTION	25:13:55	75:53:36	43REH8997990929	2015-03-05T00:00:00.000Z	2015-03-06T00:00:00.000Z		1,2	
5	12645189	15853548	Bombay Baroda and Central India Railway Rewāri Bhatinda Fāzilka Section	N	30.579799	74.779728				RR	R	IND	IN-PB		1							Bombay Baroda and Central India Railway Rewari Bhatinda Fazilka Section	SECTION	BOMBAYBARODAANDCENTRALINDIARAILWAYREWARIBHATINDAFAZILKASECTION	30:34:47	74:46:47	43RDP7888083055	2015-03-12T00:00:00.000Z	2015-04-09T00:00:00.000Z		1,2	
5	12654198	15869842	Raiwind Bhatinda Railway	N	30.2002	74.935651				RR	R	IND	IN-PB		1							Raiwind Bhatinda Railway	RAILWAY	RAIWINDBHATINDARAILWAY	30:12:01	74:56:08	43RDP9380640971	2015-03-17T00:00:00.000Z	2015-04-09T00:00:00.000Z		1,2	
5	12654406	15870266	Bīkaner Railway Main Line	N	29.750453	74.435267				RR	R	IND	IN-RJ		1							Bikaner Railway Main Line		BIKANERRAILWAYMAINLINE	29:45:02	74:26:07	43RDN4539791268	2015-03-18T00:00:00.000Z	2015-04-09T00:00:00.000Z		1,2	
5	12654549	15870836	Bikaner Section	V	29.836988	74.500302				RR	R	IND	IN-RJ									Bikaner Section		BIKANERSECTION	29:50:13	74:30:01	43RDP5172600827	2015-03-18T00:00:00.000Z	2015-04-09T00:00:00.000Z		1,2	
5	12654364	15870224	Bikaner Railway Canal Loop Line	N	29.750827	74.251937				RR	R	IND	IN-RJ		1							Bikaner Railway Canal Loop Line	LINE	BIKANERRAILWAYCANALLOOPLINE	29:45:03	74:15:07	43RDN2767091410	2015-03-18T00:00:00.000Z	2015-04-09T00:00:00.000Z		1,2	
5	12654989	15871150	Hanumangarh Sadulpur Chord	N	29.366903	74.709258				RR	R	IND	IN-RJ		1							Hanumangarh Sadulpur Chord	CHORD	HANUMANGARHSADULPURCHORD	29:22:01	74:42:33	43RDN7178248672	2015-03-18T00:00:00.000Z	2015-04-09T00:00:00.000Z		1,2	
5	12654549	15870835	JB Railway	N	29.836988	74.500302				RR	R	IND	IN-RJ		1							JB Railway		JBRAILWAY	29:50:13	74:30:01	43RDP5172600827	2015-03-18T00:00:00.000Z	2015-04-09T00:00:00.000Z		1,2	
5	12656674	15873305	South Eastern Railway Barkuhi Branch	N	22.191723	78.702163				RR	R	IND	IN-MP		1						Branch	South Eastern Railway Barkuhi Branch	BRANCH	SOUTHEASTERNRAILWAYBARKUHIBRANCH	22:11:30	78:42:08	44QKK6309055843	2015-03-18T00:00:00.000Z	2015-03-18T00:00:00.000Z		1,2	
5	12658815	15876117	Udaipur Chittorgarh Railway	N	24.562639	73.699398				RR	R	IND	IN-RJ		1							Udaipur Chittorgarh Railway	RAILWAY	UDAIPURCHITTORGARHRAILWAY	24:33:46	73:41:58	43RCH6828817142	2015-03-19T00:00:00.000Z	2015-03-19T00:00:00.000Z		1,2	
5	12662200	15881839	Central Railway Gwalior Sheopur Kalān Section	N	25.670027	76.701301				RR	R	IND	IN-MP		1							Central Railway Gwalior Sheopur Kalan Section		CENTRALRAILWAYGWALIORSHEOPURKALANSECTION	25:40:12	76:42:05	43RFJ7075140241	2015-03-20T00:00:00.000Z	2015-03-20T00:00:00.000Z		1,2	
5	12660927	15880283	Central Railway Amla Parasia Branch	N	21.921744	78.134007				RR	R	IND	IN-MP		1						Branch	Central Railway Amla Parasia Branch	BRANCH	CENTRALRAILWAYAMLAPARASIABRANCH	21:55:18	78:08:02	44QKK0391826931	2015-03-20T00:00:00.000Z	2015-03-20T00:00:00.000Z		1,2	
5	12670569	15896725	RB Railway	N	30.250789	75.195434				RR	R	IND	IN-PB		1							RB Railway	RAILWAY	RBRAILWAY	30:15:03	75:11:44	43REP1880246591	2015-03-25T00:00:00.000Z	2015-04-09T00:00:00.000Z		1,2	
5	12682176	15916305	Western Railway Bāri Sādri Section	N	24.500096	74.247806				RR	R	IND	IN-RJ		1							Western Railway Bari Sadri Section		WESTERNRAILWAYBARISADRISECTION	24:30:00	74:14:52	43RDH2379109803	2015-03-31T00:00:00.000Z	2015-03-31T00:00:00.000Z		1,2	
5	12680676	15914315	Western Railway Mālwa Section	N	25.000087	74.643699				RR	R	IND	IN-RJ		1							Western Railway Malwa Section		WESTERNRAILWAYMALWASECTION	25:00:00	74:38:37	43RDH6404665005	2015-03-30T00:00:00.000Z	2015-03-30T00:00:00.000Z		1,2	
5	12695756	15941224	Raj Path	N	28.614943	77.203343				ST	R	IND	IN-DL		1							Raj Path		RAJPATH	28:36:54	77:12:12	43RGM1542567310	2015-04-08T00:00:00.000Z	2015-04-08T00:00:00.000Z		1,2	
5	12695767	15941235	Ring Road	N	28.594126	77.168003				ST	R	IND	IN-DL		1							Ring Road		RINGROAD	28:35:39	77:10:05	43RGM1201164940	2015-04-08T00:00:00.000Z	2015-04-08T00:00:00.000Z		1,2	
5	12695766	15941234	Northern Railway Nizāmuddīn Section	N	28.639955	77.141351				RR	R	IND	IN-DL		1							Northern Railway Nizamuddin Section		NORTHERNRAILWAYNIZAMUDDINSECTION	28:38:24	77:08:29	43RGM0931369972	2015-04-08T00:00:00.000Z	2015-04-08T00:00:00.000Z		1,2	
5	12697931	15945217	Northern Railway Delhi Avoiding Line	N	28.61335	77.25349				RR	R	IND	IN-DL		1							Northern Railway Delhi Avoiding Line		NORTHERNRAILWAYDELHIAVOIDINGLINE	28:36:48	77:15:13	43RGM2033367225	2015-04-08T00:00:00.000Z	2015-04-08T00:00:00.000Z		1,2	
5	12697943	15945229	Northern Railway Shāhdora Sahāranpur Branch	N	28.672483	77.294592				RR	R	IND	IN-DL		1							Northern Railway Shahdora Saharanpur Branch		NORTHERNRAILWAYSHAHDORASAHARANPURBRANCH	28:40:21	77:17:41	43RGM2422773855	2015-04-08T00:00:00.000Z	2015-04-08T00:00:00.000Z		1,2	
5	12697943	15945539	Northern Railway Delhi Sahāranpur Branch	V	28.672483	77.294592				RR	R	IND	IN-DL									Northern Railway Delhi Saharanpur Branch		NORTHERNRAILWAYDELHISAHARANPURBRANCH	28:40:21	77:17:41	43RGM2422773855	2015-04-08T00:00:00.000Z	2015-04-08T00:00:00.000Z		1,2	
5	12697944	15945230	Northern Railway Morādābād Ghāziābād Branch	N	28.644691	77.439682				RR	R	IND	IN-UP		1							Northern Railway Moradabad Ghaziabad Branch		NORTHERNRAILWAYMORADABADGHAZIABADBRANCH	28:38:41	77:26:23	43RGM3847271056	2015-04-08T00:00:00.000Z	2015-04-08T00:00:00.000Z		1,2	
5	12698808	15946422	Central Railway Main Line	N	28.249977	77.326112				RR	R	IND	IN-HR		1							Central Railway Main Line	RAILWAY	CENTRALRAILWAYMAINLINE	28:15:00	77:19:34	43RGM2821427088	2015-04-09T00:00:00.000Z	2015-04-09T00:00:00.000Z		1,2	
5	12699750	15947787	Dhūri Junction	N	30.371938	75.864822				RJCT	R	IND	IN-PB		1							Dhuri Junction		DHURIJUNCTION	30:22:19	75:51:53	43REP8309960317	2015-04-09T00:00:00.000Z	2015-04-09T00:00:00.000Z		1,2	
5	12725763	16001034	Jāmu Trail	N	32.058526	77.500193				TRL	R	IND	IN-HP		1							Jamu Trail		JAMUTRAIL	32:03:31	77:30:01	43SGR3603949657	2015-04-29T00:00:00.000Z	2015-04-29T00:00:00.000Z		1,2	
5	12725765	16001036	Tichu Trail	N	32.059253	77.521865				TRL	R	IND	IN-HP		1							Tichu Trail		TICHUTRAIL	32:03:33	77:31:19	43SGR3808449786	2015-04-29T00:00:00.000Z	2015-04-29T00:00:00.000Z		1,2	
5	12725766	16001037	Chalchali Trail	N	32.05667	77.54235				TRL	R	IND	IN-HP		1							Chalchali Trail		CHALCHALITRAIL	32:03:24	77:32:32	43SGR4002549545	2015-04-29T00:00:00.000Z	2015-04-29T00:00:00.000Z		1,2	
5	12725762	16001033	Chopini Trail	N	32.045794	77.511349				TRL	R	IND	IN-HP		1							Chopini Trail		CHOPINITRAIL	32:02:45	77:30:41	43SGR3712648270	2015-04-29T00:00:00.000Z	2015-04-29T00:00:00.000Z		1,2	
5	12729719	16006976	North Western Railway Narwāna Kurukshetra Branch	N	29.594976	76.104885				RR	R	IND	IN-HR		1							North Western Railway Narwana Kurukshetra Branch		NORTHWESTERNRAILWAYNARWANAKURUKSHETRABRANCH	29:35:42	76:06:18	43RFN0699774416	2015-05-01T00:00:00.000Z	2015-05-01T00:00:00.000Z		1,2	
5	12731942	16009904	Rewāri Fāzilka Section	N	28.563778	76.322952				RR	R	IND	IN-HR		1							Rewari Fazilka Section		REWARIFAZILKASECTION	28:33:50	76:19:23	43RFM2939960372	2015-05-05T00:00:00.000Z	2015-05-05T00:00:00.000Z		1,2	
5	12731995	16009957	Northern Railway	N	28.501569	76.377804				RR	R	IND	IN-HR		1							Northern Railway		NORTHERNRAILWAY	28:30:06	76:22:40	43RFM3484453540	2015-05-05T00:00:00.000Z	2015-05-05T00:00:00.000Z		1,2	
5	12803993	16155112	Northern Railway Hāpur Meerut Branch	N	28.737583	77.77365				RR	R	IND	IN-UP		1							Northern Railway Hapur Meerut Branch		NORTHERNRAILWAYHAPURMEERUTBRANCH	28:44:15	77:46:25	43RGM7089082067	2015-06-17T00:00:00.000Z	2015-06-17T00:00:00.000Z		1,2	
5	12850848	16246921	South Central Railway	N	17.482431	77.875008				RR	R	IND	IN-AP		1							South Central Railway	RAILWAY	SOUTHCENTRALRAILWAY	17:28:57	77:52:30	43QHV0533735228	2015-06-29T00:00:00.000Z	2015-06-29T00:00:00.000Z		1,2,3	
5	12850848	16246936	Vikārābād Parli Vaijnāth Branch	V	17.482431	77.875008				RR	R	IND	IN-AP									Vikarabad Parli Vaijnath Branch		VIKARABADPARLIVAIJNATHBRANCH	17:28:57	77:52:30	43QHV0533735228	2015-06-29T00:00:00.000Z	2015-06-29T00:00:00.000Z		1,2,3	
5	12852043	16248329	Western Railway Bayāna Āgra Fort Branch	N	26.924206	77.296562				RR	R	IND	IN-RJ		1							Western Railway Bayana Agra Fort Branch	BRANCH	WESTERNRAILWAYBAYANAAGRAFORTBRANCH	26:55:27	77:17:48	43RGK2804380111	2015-06-29T00:00:00.000Z	2015-06-29T00:00:00.000Z		1,2	
5	12856731	16253546	Northern Railway Rājpura Bhatinda Branch	N	30.366163	76.00026				RR	R	IND	IN-PB		1							Northern Railway Rajpura Bhatinda Branch	RAILWAY	NORTHERNRAILWAYRAJPURABHATINDABRANCH	30:21:58	76:00:01	43REP9611959784	2015-06-30T00:00:00.000Z	2015-06-30T00:00:00.000Z		1,2	
5	12860589	16258057	Northern Railway Sirhind Ropar Nāngal Dam Branch	N	30.750084	76.454364				RR	R	IND	IN-PB		1							Northern Railway Sirhind Ropar Nangal Dam Branch		NORTHERNRAILWAYSIRHINDROPARNANGALDAMBRANCH	30:45:00	76:27:16	43RFQ3921002809	2015-06-30T00:00:00.000Z	2015-06-30T00:00:00.000Z		1,2	
5	12862362	16260280	National Highway Number Twenty One	N	30.706779	76.872283				RD	R	IND	IN-CH		1							National Highway Number Twenty One	HIGHWAY	NATIONALHIGHWAYNUMBERTWENTYONE	30:42:24	76:52:20	43RFP7929998603	2015-07-01T00:00:00.000Z	2015-07-01T00:00:00.000Z		1,2	
5	12862705	16260525	Northern Railway Ambāla Kālka Section	N	30.355775	76.801072				RR	R	IND	IN-HR		1							Northern Railway Ambala Kalka Section		NORTHERNRAILWAYAMBALAKALKASECTION	30:21:21	76:48:04	43RFP7310059584	2015-07-01T00:00:00.000Z	2015-07-01T00:00:00.000Z		1,2	
5	12863600	16261559	Northern Railway Delhi Ambaia Kālka Section	N	30.173771	76.860273				RR	R	IND	IN-HR		1							Northern Railway Delhi Ambaia Kalka Section		NORTHERNRAILWAYDELHIAMBAIAKALKASECTION	30:10:26	76:51:37	43RFP7912139503	2015-07-01T00:00:00.000Z	2015-07-01T00:00:00.000Z		1,2	
5	12864723	16263091	Mathura Junction	N	27.478882	77.674986				RJCT	R	IND	IN-UP		1							Mathura Junction		MATHURAJUNCTION	27:28:44	77:40:30	43RGL6432142326	2015-07-01T00:00:00.000Z	2015-07-01T00:00:00.000Z		1,2	
5	12865260	16263718	Northern Ry Narwāna Kurukshetra Branch	N	29.693947	76.250085				RR	R	IND	IN-HR		1							Northern Ry Narwana Kurukshetra Branch		NORTHERNRYNARWANAKURUKSHETRABRANCH	29:41:38	76:15:00	43RFN2094185527	2015-07-02T00:00:00.000Z	2015-07-02T00:00:00.000Z		1,2	
5	12866242	16265095	North Eastern Railway Vrindāvan Branch	N	27.485908	77.678769				RR	R	IND	IN-UP		1							North Eastern Railway Vrindavan Branch		NORTHEASTERNRAILWAYVRINDAVANBRANCH	27:29:09	77:40:44	43RGL6467843113	2015-07-02T00:00:00.000Z	2015-07-02T00:00:00.000Z		1,2	
5	12866412	16265284	Northern Railway Hāpur Branch	N	28.219843	77.809721				RR	R	IND	IN-UP		1							Northern Railway Hapur Branch	RAILWAY	NORTHERNRAILWAYHAPURBRANCH	28:13:11	77:48:35	43RGM7575824755	2015-07-02T00:00:00.000Z	2015-07-02T00:00:00.000Z		1,2	
5	12867205	16266263	Western Railway Āgra Branch	N	27.23594	77.493068				RR	R	IND	IN-RJ		1							Western Railway Agra Branch		WESTERNRAILWAYAGRABRANCH	27:14:09	77:29:35	43RGL4687715027	2015-07-02T00:00:00.000Z	2015-07-02T00:00:00.000Z		1,2	
5	12872309	16274389	Bengal Nagpur Railway Raipur Dhamtari Branch	N	20.714469	81.549913				RR	R	IND	IN-CT		1							Bengal Nagpur Railway Raipur Dhamtari Branch		BENGALNAGPURRAILWAYRAIPURDHAMTARIBRANCH	20:42:52	81:33:00	44QNH5726090645	2015-07-02T00:00:00.000Z	2015-07-02T00:00:00.000Z		1,2	
5	12873140	16275224	Raipur Forest Tramway	N	20.073146	81.916234				RR	R	IND	IN-OR		1							Raipur Forest Tramway		RAIPURFORESTTRAMWAY	20:04:23	81:54:58	44QNH9580219839	2015-07-02T00:00:00.000Z	2015-07-02T00:00:00.000Z		1,2	
5	12876024	16278430	Central Railway Pūrna Hingoli Branch	N	19.181625	77.032271				RR	R	IND	IN-MH		1							Central Railway Purna Hingoli Branch	BRANCH	CENTRALRAILWAYPURNAHINGOLIBRANCH	19:10:54	77:01:56	43QGB1369922170	2015-07-06T00:00:00.000Z	2015-07-06T00:00:00.000Z		1,2	
5	12877929	16281115	South Central Railway Jankampet Bodhan Branch	N	18.641599	77.885191				RR	R	IND	IN-AP		1							South Central Railway Jankampet Bodhan Branch	BRANCH	SOUTHCENTRALRAILWAYJANKAMPETBODHANBRANCH	18:38:30	77:53:07	43QHA0441363623	2015-07-07T00:00:00.000Z	2015-07-07T00:00:00.000Z		1,2	
5	12881702	16285869	Central Railway	V	20.726985	78.318112				RR	R	IND	IN-MH									Central Railway		CENTRALRAILWAY	20:43:37	78:19:05	44QKH2069494247	2015-07-07T00:00:00.000Z	2015-07-07T00:00:00.000Z		1,2	
5	12881702	16285860	Pulgaon Arvi Railway	N	20.726985	78.318112				RR	R	IND	IN-MH		1							Pulgaon Arvi Railway		PULGAONARVIRAILWAY	20:43:37	78:19:05	44QKH2069494247	2015-07-07T00:00:00.000Z	2015-07-07T00:00:00.000Z		1,2	
5	12882985	16287276	Central Railway Mājri Rājur Branch	N	20.111812	78.903656				RR	R	IND	IN-MH		1							Central Railway Majri Rajur Branch		CENTRALRAILWAYMAJRIRAJURBRANCH	20:06:43	78:54:13	44QKH8082925234	2015-07-07T00:00:00.000Z	2015-07-07T00:00:00.000Z		1,2	
5	12889174	16295684	Eastern Indian Railway Shikohābād Farrukhābād Branch	N	27.085072	78.578768				RR	R	IND	IN-UP		1							Eastern Indian Railway Shikohabad Farrukhabad Branch		EASTERNINDIANRAILWAYSHIKOHABADFARRUKHABADBRANCH	27:05:06	78:34:44	44RKQ5991698168	2015-07-08T00:00:00.000Z	2015-07-08T00:00:00.000Z		1,2	
5	12890938	16297709	Northern Railway Alīgarh Branch	N	27.90025	78.067204				RR	R	IND	IN-UP		1							Northern Railway Aligarh Branch		NORTHERNRAILWAYALIGARHBRANCH	27:54:01	78:04:02	44RKR1130489612	2015-07-08T00:00:00.000Z	2015-07-08T00:00:00.000Z		1,2	
5	12897733	16305019	Secunderābād Dronachellam Railway	N	15.999938	77.937111				RR	R	IND	IN-AP		1	eng					Railway	Secunderabad Dronachellam Railway	RAILWAY	SECUNDERABADDRONACHELLAMRAILWAY	16:00:00	77:56:14	43PHT1436471151	2015-07-09T00:00:00.000Z	2015-07-09T00:00:00.000Z		1,2	
5	12899694	16307190	Great Deccan Road	N	19.83222	78.569801				RD	R	IND	IN-MH		1							Great Deccan Road	ROAD	GREATDECCANROAD	19:49:56	78:34:11	44QKG4546194747	2015-07-09T00:00:00.000Z	2015-07-09T00:00:00.000Z		1,2	
5	12900681	16308283	Central Railway Mohāri Sir Muttra Branch	N	26.519532	77.375525				RR	R	IND	IN-RJ		1							Central Railway Mohari Sir Muttra Branch		CENTRALRAILWAYMOHARISIRMUTTRABRANCH	26:31:10	77:22:32	43RGK3672335413	2015-07-09T00:00:00.000Z	2015-07-09T00:00:00.000Z		1,2	
5	12900992	16308643	South Central Railway Main Line Wādi Secunderābād Section	N	17.405245	78.000217				RR	R	IND	IN-AP		1							South Central Railway Main Line Wadi Secunderabad Section	SECTION	SOUTHCENTRALRAILWAYMAINLINEWADISECUNDERABADSECTION	17:24:19	78:00:01	44QJE8126726884	2015-07-09T00:00:00.000Z	2015-07-09T00:00:00.000Z		1,2	
5	12901854	16309555	Central Railway Korādi Branch	N	21.207981	79.070709				RR	R	IND	IN-MH		1							Central Railway Koradi Branch		CENTRALRAILWAYKORADIBRANCH	21:12:29	79:04:15	44QKJ9974246386	2015-07-09T00:00:00.000Z	2015-07-09T00:00:00.000Z		1,2	
5	12901856	16309557	South Eastern Railway Nāgpur Chhindwāra Extension	N	21.168093	79.138239				RR	R	IND	IN-MH		1							South Eastern Railway Nagpur Chhindwara Extension		SOUTHEASTERNRAILWAYNAGPURCHHINDWARAEXTENSION	21:10:05	79:08:18	44QLJ0670241885	2015-07-09T00:00:00.000Z	2015-07-09T00:00:00.000Z		1,2	
5	12901862	16309563	South Eastern Railway Rāmtek Branch	N	21.22649	79.243253				RR	R	IND	IN-MH		1							South Eastern Railway Ramtek Branch		SOUTHEASTERNRAILWAYRAMTEKBRANCH	21:13:35	79:14:36	44QLJ1767948226	2015-07-09T00:00:00.000Z	2015-07-09T00:00:00.000Z		1,2	
5	12901887	16309588	South Eastern Railway Main Line	N	21.157286	79.089275				RR	R	IND	IN-MH		1							South Eastern Railway Main Line		SOUTHEASTERNRAILWAYMAINLINE	21:09:26	79:05:21	44QLJ0160240749	2015-07-09T00:00:00.000Z	2015-07-09T00:00:00.000Z		1,2	
5	12902071	16309772	South Eastern Railway Motibāgh Extension	N	21.157047	79.127534				RR	R	IND	IN-MH		1							South Eastern Railway Motibagh Extension		SOUTHEASTERNRAILWAYMOTIBAGHEXTENSION	21:09:25	79:07:39	44QLJ0557540676	2015-07-09T00:00:00.000Z	2015-07-09T00:00:00.000Z		1,2	
5	12904030	16311921	Central Railway Dhaulpur Tāntpur Branch	N	26.839004	77.478797				RR	R	IND	IN-UP		1							Central Railway Dhaulpur Tantpur Branch		CENTRALRAILWAYDHAULPURTANTPURBRANCH	26:50:20	77:28:44	43RGK4632971010	2015-07-09T00:00:00.000Z	2015-07-09T00:00:00.000Z		1,2	
5	12906236	16314327	Baroda and Central India Railway Cawnpore Achnera Section Main Line Bombay	N	27.379151	79.57617				RR	R	IND	IN-UP		1							Baroda and Central India Railway Cawnpore Achnera Section Main Line Bombay		BARODAANDCENTRALINDIARAILWAYCAWNPOREACHNERASECTIONMAINLINEBOMBAY	27:22:45	79:34:34	44RLR5920329235	2015-07-09T00:00:00.000Z	2015-07-09T00:00:00.000Z		1,2	
5	12909482	16317823	North Eastern Railway Shāhjahānpur Extension	N	27.857821	79.909234				RR	R	IND	IN-UP		1							North Eastern Railway Shahjahanpur Extension		NORTHEASTERNRAILWAYSHAHJAHANPUREXTENSION	27:51:28	79:54:33	44RLR9260981930	2015-07-10T00:00:00.000Z	2015-07-10T00:00:00.000Z		1,2	
5	12909577	16317918	Northern Railway Roza Sītāpur Branch	N	27.845451	79.956273				RR	R	IND	IN-UP		1							Northern Railway Roza Sitapur Branch		NORTHERNRAILWAYROZASITAPURBRANCH	27:50:44	79:57:23	44RLR9722980520	2015-07-10T00:00:00.000Z	2015-07-10T00:00:00.000Z		1,2	
5	12920611	16335810	Northern Railway Hāthras Branch	N	27.592942	78.057927				RR	R	IND	IN-UP		1							Northern Railway Hathras Branch		NORTHERNRAILWAYHATHRASBRANCH	27:35:35	78:03:29	44RKR0957555568	2015-07-13T00:00:00.000Z	2015-07-13T00:00:00.000Z		1,2	
5	12923379	16338811	North Eastern Railway Kāsganj Extension	N	27.794748	78.638822				RR	R	IND	IN-UP		1							North Eastern Railway Kasganj Extension		NORTHEASTERNRAILWAYKASGANJEXTENSION	27:47:41	78:38:20	44RKR6736776702	2015-07-13T00:00:00.000Z	2015-07-13T00:00:00.000Z		1,2	
5	12923379	16342064	O & R Ry Barelilly-Kāsganj Extension	V	27.794748	78.638822				RR	R	IND	IN-UP									O & R Ry Barelilly-Kasganj Extension		ORRYBARELILLYKASGANJEXTENSION	27:47:41	78:38:20	44RKR6736776702	2015-07-13T00:00:00.000Z	2015-07-13T00:00:00.000Z		1,2	
5	12924642	16340975	South Central Railway Main Line	N	17.597938	79.999718				RR	R	IND	IN-AP		1							South Central Railway Main Line	MAINLINE	SOUTHCENTRALRAILWAYMAINLINE	17:35:53	79:59:59	44QLE9386645984	2015-07-13T00:00:00.000Z	2015-07-13T00:00:00.000Z		1,2	
5	12928463	16345017	Central Railway Ait Konch Section	N	25.901422	79.224488				RR	R	IND	IN-UP		1							Central Railway Ait Konch Section		CENTRALRAILWAYAITKONCHSECTION	25:54:05	79:13:28	44RLP2214565971	2015-07-13T00:00:00.000Z	2015-07-13T00:00:00.000Z		1,2	
5	12929611	16346226	South Central Railway Guntūr Mācherla Branch	N	16.468501	79.438313				RR	R	IND	IN-AP		1	eng					Branch	South Central Railway Guntur Macherla Branch	BRANCH	SOUTHCENTRALRAILWAYGUNTURMACHERLABRANCH	16:28:07	79:26:18	44QLD3329021404	2015-07-14T00:00:00.000Z	2015-07-14T00:00:00.000Z		1,2	
5	12930407	16347136	Northern Railway Main Line	N	25.203375	80.317207				RR	R	IND	IN-MP		1							Northern Railway Main Line	MAINLINE	NORTHERNRAILWAYMAINLINE	25:12:12	80:19:02	44RMN3121287642	2015-07-14T00:00:00.000Z	2015-07-14T00:00:00.000Z		1,2	
5	12930427	16347157	Northern Ry Bālāmau Sītāpur Branch	N	25.234745	80.39093				RR	R	IND	IN-MP		1							Northern Ry Balamau Sitapur Branch	BRANCH	NORTHERNRYBALAMAUSITAPURBRANCH	25:14:05	80:23:27	44RMN3865591080	2015-07-14T00:00:00.000Z	2015-07-14T00:00:00.000Z		1,2	
5	12930445	16347175	Northern Railway Main Line	N	25.08745	80.468269				RR	R	IND	IN-UP		1							Northern Railway Main Line	MAINLINE	NORTHERNRAILWAYMAINLINE	25:05:15	80:28:06	44RMN4638174737	2015-07-14T00:00:00.000Z	2015-07-14T00:00:00.000Z		1,2	
5	12931784	16348647	Pindauna Bāndh	N	25.593146	82.162476				RR	R	IND	IN-UP		1							Pindauna Bandh		PINDAUNABANDH	25:35:35	82:09:45	44RPP1674131140	2015-07-14T00:00:00.000Z	2015-07-14T00:00:00.000Z		1,2	
5	12935354	16352662	Western Railway Rotām Ajmer Section	N	21.827094	76.352916				RR	R	IND	IN-MP		1							Western Railway Rotam Ajmer Section		WESTERNRAILWAYROTAMAJMERSECTION	21:49:38	76:21:10	43QFE3982714303	2015-07-14T00:00:00.000Z	2015-07-14T00:00:00.000Z		1,2	
5	12937920	16355795	North East Railway Bhatni Vārānasi Chord	N	25.547175	83.192193				RR	R	IND	IN-UP		1							North East Railway Bhatni Varanasi Chord	CHORD	NORTHEASTRAILWAYBHATNIVARANASICHORD	25:32:50	83:11:32	44RQP2025827356	2015-07-15T00:00:00.000Z	2015-07-15T00:00:00.000Z		1,2	
5	12939678	16357691	Eastern Railway Main Line	N	25.273072	83.108746				RR	R	IND	IN-UP		1							Eastern Railway Main Line	MAINLINE	EASTERNRAILWAYMAINLINE	25:16:23	83:06:31	44RQN1235196854	2015-07-15T00:00:00.000Z	2015-07-15T00:00:00.000Z		1,2	
5	12939730	16357743	Eastern Railway Grand Chord	N	25.286673	83.171576				RR	R	IND	IN-UP		1							Eastern Railway Grand Chord	GRANDCHORD	EASTERNRAILWAYGRANDCHORD	25:17:12	83:10:18	44RQN1865598462	2015-07-15T00:00:00.000Z	2015-07-15T00:00:00.000Z		1,2	
5	12946513	16365133	North-East Line Nāgpur Branch	V	20.91372	76.000179				RR	R	IND	IN-MH									North-East Line Nagpur Branch		NORTHEASTLINENAGPURBRANCH	20:54:49	76:00:01	43QFD0401112923	2015-07-16T00:00:00.000Z	2015-07-16T00:00:00.000Z		1,2	
5	12946513	16365082	Great Indian Peninsula Railway	N	20.91372	76.000179				RR	R	IND	IN-MH		1							Great Indian Peninsula Railway		GREATINDIANPENINSULARAILWAY	20:54:49	76:00:01	43QFD0401112923	2015-07-16T00:00:00.000Z	2015-07-16T00:00:00.000Z		1,2	
5	12945765	16364174	Chauka Tunnel	N	22.863153	77.632551				TNLRR	R	IND	IN-MP		1							Chauka Tunnel		CHAUKATUNNEL	22:51:47	77:37:57	43QGF7012630783	2015-07-15T00:00:00.000Z	2015-07-15T00:00:00.000Z		1,2	
5	12945763	16364172	Bhīmkothi Tunnel	N	22.828321	77.635144				TNLRR	R	IND	IN-MP		1							Bhimkothi Tunnel		BHIMKOTHITUNNEL	22:49:42	77:38:07	43QGF7046126929	2015-07-15T00:00:00.000Z	2015-07-15T00:00:00.000Z		1,2	
5	12945995	16364452	Central Railway Main Line	N	22.609307	77.771079				RR	R	IND	IN-MP		1							Central Railway Main Line		CENTRALRAILWAYMAINLINE	22:36:34	77:46:16	43QGF8487402921	2015-07-15T00:00:00.000Z	2015-07-15T00:00:00.000Z		1,2	
5	12951788	16370882	Central Railway Badnera Amrāvati Branch	N	20.856839	77.738844				RR	R	IND	IN-MH		1							Central Railway Badnera Amravati Branch		CENTRALRAILWAYBADNERAAMRAVATIBRANCH	20:51:25	77:44:20	43QGD8499708730	2015-07-16T00:00:00.000Z	2015-07-16T00:00:00.000Z		1,2	
5	12951995	16371131	North Eastern Railway Shāhganj Branch	N	25.93523	83.55992				RR	R	IND	IN-UP		1							North Eastern Railway Shahganj Branch	BRANCH	NORTHEASTERNRAILWAYSHAHGANJBRANCH	25:56:07	83:33:36	44RQP5638471017	2015-07-16T00:00:00.000Z	2015-07-16T00:00:00.000Z		1,2	
5	12952045	16371181	North Eastern Railway Dohrīghāt Branch	N	25.98553	83.610758				RR	R	IND	IN-UP		1							North Eastern Railway Dohrighat Branch	BRANCH	NORTHEASTERNRAILWAYDOHRIGHATBRANCH	25:59:08	83:36:39	44RQP6136776692	2015-07-16T00:00:00.000Z	2015-07-16T00:00:00.000Z		1,2	
5	12952540	16371676	North Eastern Railway Dohrīghāt Branch	V	25.989575	83.627586				RR	R	IND	IN-UP									North Eastern Railway Dohrighat Branch	BRANCH	NORTHEASTERNRAILWAYDOHRIGHATBRANCH	25:59:22	83:37:39	44RQP6304377174	2015-07-16T00:00:00.000Z	2015-07-16T00:00:00.000Z		1,2	
5	12952540	16372191	North Eastern Railway Bhatni Vārānasi Chord	N	25.989575	83.627586				RR	R	IND	IN-UP		1							North Eastern Railway Bhatni Varanasi Chord		NORTHEASTERNRAILWAYBHATNIVARANASICHORD	25:59:22	83:37:39	44RQP6304377174	2015-07-16T00:00:00.000Z	2015-07-16T00:00:00.000Z		1,2	
5	12952554	16371729	Central Railway Jhānsi Kānpur Branch	N	25.458565	78.552901				RR	R	IND	IN-UP		1							Central Railway Jhansi Kanpur Branch		CENTRALRAILWAYJHANSIKANPURBRANCH	25:27:31	78:33:10	44RKP5394117985	2015-07-16T00:00:00.000Z	2015-07-16T00:00:00.000Z		1,2	
5	12952610	16371785	Central Railway Jhānsi Mānikpur Branch	N	25.433909	78.553258				RR	R	IND	IN-UP		1							Central Railway Jhansi Manikpur Branch		CENTRALRAILWAYJHANSIMANIKPURBRANCH	25:26:02	78:33:12	44RKP5392715253	2015-07-16T00:00:00.000Z	2015-07-16T00:00:00.000Z		1,2	
5	12953142	16372508	Eastern Railway Tārīghāt Branch	N	25.421187	83.668739				RR	R	IND	IN-UP		1							Eastern Railway Tarighat Branch	BRANCH	EASTERNRAILWAYTARIGHATBRANCH	25:25:16	83:40:07	44RQP6843814271	2015-07-16T00:00:00.000Z	2015-07-16T00:00:00.000Z		1,2	
5	12955393	16375149	National Highway Thirty	N	25.165238	83.624038				RD	R	IND	IN-BR		1							National Highway Thirty	HIGHWAY	NATIONALHIGHWAYTHIRTY	25:09:55	83:37:27	44RQN6449585821	2015-07-17T00:00:00.000Z	2015-07-17T00:00:00.000Z		1,2	
5	12957252	16377060	Northern Railway	N	24.766344	83.037504				RR	R	IND	IN-UP		1							Northern Railway	RAILWAY	NORTHERNRAILWAY	24:45:59	83:02:15	44RQN0601940611	2015-07-17T00:00:00.000Z	2015-07-17T00:00:00.000Z		1,2	
5	12959984	16380183	South Eastern Railway Tumsar Road Tirodi Branch	N	21.53622	79.710779				RR	R	IND	IN-MH		1							South Eastern Railway Tumsar Road Tirodi Branch		SOUTHEASTERNRAILWAYTUMSARROADTIRODIBRANCH	21:32:10	79:42:39	44QLJ6648982046	2015-07-20T00:00:00.000Z	2015-07-20T00:00:00.000Z		1,2	
5	12960292	16380522	South Eastern Railway Ramrama Branch	N	21.768445	79.802534				RR	R	IND	IN-MP		1							South Eastern Railway Ramrama Branch		SOUTHEASTERNRAILWAYRAMRAMABRANCH	21:46:06	79:48:09	44QLK7619007677	2015-07-20T00:00:00.000Z	2015-07-20T00:00:00.000Z		1,2	
5	12960668	16380897	Northern Railway Chunār Churk Branch	N	24.526717	83.026481				RR	R	IND	IN-UP		1							Northern Railway Chunar Churk Branch	BRANCH	NORTHERNRAILWAYCHUNARCHURKBRANCH	24:31:36	83:01:35	44RQN0529614051	2015-07-20T00:00:00.000Z	2015-07-20T00:00:00.000Z		1,2	
5	12960338	16380568	South Eastern Railway Katangi Branch	N	21.761508	79.804866				RR	R	IND	IN-MP		1							South Eastern Railway Katangi Branch		SOUTHEASTERNRAILWAYKATANGIBRANCH	21:45:41	79:48:18	44QLK7642606907	2015-07-20T00:00:00.000Z	2015-07-20T00:00:00.000Z		1,2	
5	12964261	16384778	Eastern Railway Merālgrām Bhavnāthpur Section	N	24.199847	83.702853				RR	R	IND	IN-JH		1							Eastern Railway Meralgram Bhavnathpur Section		EASTERNRAILWAYMERALGRAMBHAVNATHPURSECTION	24:11:59	83:42:10	44RQM7455279009	2015-07-20T00:00:00.000Z	2015-07-20T00:00:00.000Z		1,2	
5	12966042	16386856	Central Railway Bānda Kānpur Branch	N	25.450109	80.231258				RR	R	IND	IN-UP		1	eng					Branch	Central Railway Banda Kanpur Branch	BRANCH	CENTRALRAILWAYBANDAKANPURBRANCH	25:27:00	80:13:53	44RMP2271015012	2015-07-20T00:00:00.000Z	2015-07-20T00:00:00.000Z		1,2	
5	12967988	16388876	South Central Railway Vikārābād Parli Vaijnāth Branch	N	18.750305	76.543111				RR	R	IND	IN-MH		1							South Central Railway Vikarabad Parli Vaijnath Branch		SOUTHCENTRALRAILWAYVIKARABADPARLIVAIJNATHBRANCH	18:45:01	76:32:35	43QFA6266973904	2015-07-20T00:00:00.000Z	2015-07-20T00:00:00.000Z		1,2	
5	12967939	16388827	South Central Railway Parbhani Parli Vaijnāth Branch	N	18.85096	76.51956				RR	R	IND	IN-MH		1							South Central Railway Parbhani Parli Vaijnath Branch		SOUTHCENTRALRAILWAYPARBHANIPARLIVAIJNATHBRANCH	18:51:03	76:31:10	43QFA6009085023	2015-07-20T00:00:00.000Z	2015-07-20T00:00:00.000Z		1,2	
5	12969776	16390743	South Central Railway Vikārābād Purli Baijnath Branch	N	17.999983	77.283849				RR	R	IND	IN-KA		1							South Central Railway Vikarabad Purli Baijnath Branch		SOUTHCENTRALRAILWAYVIKARABADPURLIBAIJNATHBRANCH	18:00:00	77:17:02	43QGV4182691674	2015-07-21T00:00:00.000Z	2015-07-21T00:00:00.000Z		1,2	
5	12970344	16391337	National Highway Seven	N	17.674197	78.485934				RD	R	IND	IN-AP		1							National Highway Seven		NATIONALHIGHWAYSEVEN	17:40:27	78:29:09	44QKE3330055918	2015-07-21T00:00:00.000Z	2015-07-21T00:00:00.000Z		1,2	
5	12970343	16391336	National Highway Nine	N	17.515842	78.282702				RD	R	IND	IN-AP		1							National Highway Nine		NATIONALHIGHWAYNINE	17:30:57	78:16:58	44QKE1147638682	2015-07-21T00:00:00.000Z	2015-07-21T00:00:00.000Z		1,2	
5	12970444	16391481	Pirangivoni Kalava	N	17.290989	78.435853				TRL	R	IND	IN-AP		1							Pirangivoni Kalava		PIRANGIVONIKALAVA	17:17:28	78:26:09	44QKE2741313560	2015-07-21T00:00:00.000Z	2015-07-21T00:00:00.000Z		1,2	
5	12969569	16390524	Eastern Railway Barun Dāltenganj Branch	N	24.159728	83.999811				RR	R	IND	IN-JH		1							Eastern Railway Barun Daltenganj Branch	BRANCH	EASTERNRAILWAYBARUNDALTENGANJBRANCH	24:09:35	83:59:59	44RRM0482975179	2015-07-21T00:00:00.000Z	2015-07-21T00:00:00.000Z		1,2	
5	12982444	16407365	National Highway Twenty Seven	N	24.647254	81.546927				RD	R	IND	IN-MP		1							National Highway Twenty Seven		NATIONALHIGHWAYTWENTYSEVEN	24:38:50	81:32:49	44RNN5534726000	2015-07-22T00:00:00.000Z	2015-07-22T00:00:00.000Z		1,2	
5	12986764	16411882	Bengal Nagpur Railway	V	21.385862	78.931653				RR	R	IND	IN-MH									Bengal Nagpur Railway		BENGALNAGPURRAILWAY	21:23:09	78:55:54	44QKJ8556266265	2015-07-23T00:00:00.000Z	2015-07-23T00:00:00.000Z		1,2	
5	12986764	16411877	Sātpura Railway Khāpa Branch	N	21.385862	78.931653				RR	R	IND	IN-MH		1							Satpura Railway Khapa Branch		SATPURARAILWAYKHAPABRANCH	21:23:09	78:55:54	44QKJ8556266265	2015-07-23T00:00:00.000Z	2015-07-23T00:00:00.000Z		1,2	
5	12991595	16417131	Northern Railway Lucknow Sultānpur Zafarābād Branch	N	25.716957	82.716022				RR	R	IND	IN-UP		1							Northern Railway Lucknow Sultanpur Zafarabad Branch		NORTHERNRAILWAYLUCKNOWSULTANPURZAFARABADBRANCH	25:43:01	82:42:58	44RPP7216145458	2015-07-23T00:00:00.000Z	2015-07-23T00:00:00.000Z		1,2	
5	12996832	16422634	North Eastern Railway Mirzāpurghāt Extension	N	25.159922	82.554541				RR	R	IND	IN-UP		1							North Eastern Railway Mirzapurghat Extension		NORTHEASTERNRAILWAYMIRZAPURGHATEXTENSION	25:09:36	82:33:16	44RPN5667783560	2015-07-24T00:00:00.000Z	2015-07-24T00:00:00.000Z		1,2	
5	12997772	16423603	Nortern Railway Vārānasi Lucknow Loop	N	25.324656	82.980671				RR	R	IND	IN-UP		1							Nortern Railway Varanasi Lucknow Loop		NORTERNRAILWAYVARANASILUCKNOWLOOP	25:19:29	82:58:50	44RPP9936602372	2015-07-24T00:00:00.000Z	2015-07-24T00:00:00.000Z		1,2	
5	12999469	16425372	Central Railway Jukehi Kaimur Branch	N	24.000331	80.507331				RR	R	IND	IN-MP		1							Central Railway Jukehi Kaimur Branch		CENTRALRAILWAYJUKEHIKAIMURBRANCH	24:00:01	80:30:26	44RMM4989054351	2015-07-24T00:00:00.000Z	2015-07-24T00:00:00.000Z		1,2	
5	12999302	16425214	Bengal Nagpur Railway Juhbulpore Gondia Extension	N	22.605985	79.999661				RR	R	IND	IN-MP		1							Bengal Nagpur Railway Juhbulpore Gondia Extension		BENGALNAGPURRAILWAYJUHBULPOREGONDIAEXTENSION	22:36:22	79:59:59	44QLL9718500249	2015-07-24T00:00:00.000Z	2015-07-24T00:00:00.000Z		1,2	
5	13002571	16428822	Eastern Railway Singrauli Obra Rail Link	N	24.205532	82.673396				RR	R	IND	IN-MP		1							Eastern Railway Singrauli Obra Rail Link		EASTERNRAILWAYSINGRAULIOBRARAILLINK	24:12:20	82:40:24	44RPM6994878000	2015-07-24T00:00:00.000Z	2015-07-24T00:00:00.000Z		1,2	
5	13002842	16429105	Northern Railway Rohtak Bhiwāni Branch	N	28.832873	76.250341				RR	R	IND	IN-HR		1							Northern Railway Rohtak Bhiwani Branch		NORTHERNRAILWAYROHTAKBHIWANIBRANCH	28:49:58	76:15:01	43RFM2198490112	2015-07-24T00:00:00.000Z	2015-07-24T00:00:00.000Z		1,2	
5	13007306	16434174	Northern Railway Kotdwāra Branch	N	29.605424	78.346002				RR	R	IND	IN-UP		1							Northern Railway Kotdwara Branch		NORTHERNRAILWAYKOTDWARABRANCH	29:36:20	78:20:46	44RKT4297478007	2015-07-27T00:00:00.000Z	2015-07-27T00:00:00.000Z		1,2	
5	13005291	16431979	A R C Branch	V	26.249987	80.884272				RR	R	IND	IN-UP									A R C Branch		ARCBRANCH	26:15:00	80:53:03	44RMQ8844303374	2015-07-27T00:00:00.000Z	2015-07-27T00:00:00.000Z		1,2	
5	13005291	16431959	Oudh and Rohilkhand Railway	N	26.249987	80.884272				RR	R	IND	IN-UP		1							Oudh and Rohilkhand Railway		OUDHANDROHILKHANDRAILWAY	26:15:00	80:53:03	44RMQ8844303374	2015-07-27T00:00:00.000Z	2015-07-27T00:00:00.000Z		1,2	
5	13017061	16444583	Bengal and North Western Railway	N	27.146286	81.998609				RR	R	IND	IN-UP		1							Bengal and North Western Railway		BENGALANDNORTHWESTERNRAILWAY	27:08:47	81:59:55	44RNR9895203031	2015-07-27T00:00:00.000Z	2015-07-27T00:00:00.000Z		1,2	
5	13017061	16445033	Company’s Section Gorakhpur Tulsipur Gonda Loop	V	27.146286	81.998609				RR	R	IND	IN-UP									Company's Section Gorakhpur Tulsipur Gonda Loop		COMPANYSSECTIONGORAKHPURTULSIPURGONDALOOP	27:08:47	81:59:55	44RNR9895203031	2015-07-27T00:00:00.000Z	2015-07-27T00:00:00.000Z		1,2	
5	13017841	16445454	Bengal-nāgpur Railway Barkūhi Branch	N	22.367599	79.897062				RR	R	IND	IN-MP		1							Bengal-nagpur Railway Barkuhi Branch		BENGALNAGPURRAILWAYBARKUHIBRANCH	22:22:03	79:53:49	44QLK8644573932	2015-07-28T00:00:00.000Z	2015-07-28T00:00:00.000Z		1,2	
5	13022953	16450796	Bengal Nagpur Railway Mineral Tramway	V	21.345042	79.75614				RR	R	IND	IN-MH									Bengal Nagpur Railway Mineral Tramway		BENGALNAGPURRAILWAYMINERALTRAMWAY	21:20:42	79:45:22	44QLJ7101960845	2015-07-28T00:00:00.000Z	2015-07-28T00:00:00.000Z		1,2	
5	13022953	16450700	South Eastern Railway Tumsar Tirodi Branch	N	21.345042	79.75614				RR	R	IND	IN-MH		1							South Eastern Railway Tumsar Tirodi Branch		SOUTHEASTERNRAILWAYTUMSARTIRODIBRANCH	21:20:42	79:45:22	44QLJ7101960845	2015-07-28T00:00:00.000Z	2015-07-28T00:00:00.000Z		1,2	
5	13028957	16459408	Wardhā - Balharshah Bch. N. E. Line	V	20.003498	79.246998				RR	R	IND	IN-MH									Wardha - Balharshah Bch. N. E. Line		WARDHABALHARSHAHBCHNELINE	20:00:13	79:14:49	44QLH1660912828	2015-07-28T00:00:00.000Z	2015-07-28T00:00:00.000Z		1,2	
5	13028957	16459362	Gip Railway	N	20.003498	79.246998				RR	R	IND	IN-MH		1							Gip Railway		GIPRAILWAY	20:00:13	79:14:49	44QLH1660912828	2015-07-28T00:00:00.000Z	2015-07-28T00:00:00.000Z		1,2	
5	13029991	16460405	Northeast Railway Rāmnagar Extension	N	28.999854	78.863425				RR	R	IND	IN-UP		1							Northeast Railway Ramnagar Extension		NORTHEASTRAILWAYRAMNAGAREXTENSION	28:59:59	78:51:48	44RKT9187209851	2015-07-28T00:00:00.000Z	2015-07-28T00:00:00.000Z		1,2	
5	13030565	16460980	Northeast Railway Kāshīpur Extension	N	29.174485	79.000112				RR	R	IND	IN-UT		1							Northeast Railway Kashipur Extension		NORTHEASTRAILWAYKASHIPUREXTENSION	29:10:28	79:00:00	44RLT0551828972	2015-07-28T00:00:00.000Z	2015-07-28T00:00:00.000Z		1,2	
5	13034088	16464887	Northern Railway Gajraula Najībābād Branch	N	28.901105	78.250047				RR	R	IND	IN-UP		1							Northern Railway Gajraula Najibabad Branch		NORTHERNRAILWAYGAJRAULANAJIBABADBRANCH	28:54:04	78:15:00	44RKT3184500141	2015-07-28T00:00:00.000Z	2015-07-28T00:00:00.000Z		1,2	
5	13033099	16463864	Western Railway Tāpti Valley Branch	N	21.273616	74.000041				RR	R	IND	IN-MH		1							Western Railway Tapti Valley Branch		WESTERNRAILWAYTAPTIVALLEYBRANCH	21:16:25	74:00:00	43QCD9626252758	2015-07-28T00:00:00.000Z	2015-07-28T00:00:00.000Z		1,2	
5	13034430	16465278	Central Railway Jhānsi Mānikpur Branch	N	25.062253	81.085142				RR	R	IND	IN-UP		1							Central Railway Jhansi Manikpur Branch		CENTRALRAILWAYJHANSIMANIKPURBRANCH	25:03:44	81:05:07	44RNN0858771844	2015-07-28T00:00:00.000Z	2015-07-28T00:00:00.000Z		1,2	
5	13033929	16464728	Northern Railway Morādābād Ghāziābād Branch	N	28.834246	78.249848				RR	R	IND	IN-UP		1							Northern Railway Moradabad Ghaziabad Branch		NORTHERNRAILWAYMORADABADGHAZIABADBRANCH	28:50:03	78:14:59	44RKS3165492729	2015-07-28T00:00:00.000Z	2015-07-28T00:00:00.000Z		1,2	
5	13034090	16464889	National Highway Number Twenty Four	N	28.838024	78.249894				RD	R	IND	IN-UP		1							National Highway Number Twenty Four		NATIONALHIGHWAYNUMBERTWENTYFOUR	28:50:17	78:15:00	44RKS3166893148	2015-07-28T00:00:00.000Z	2015-07-28T00:00:00.000Z		1,2	
5	13032850	16463560	South Central Railway Kurduvādi Lātūr Branch	N	18.340549	75.999886				RR	R	IND	IN-MH		1							South Central Railway Kurduvadi Latur Branch		SOUTHCENTRALRAILWAYKURDUVADILATURBRANCH	18:20:26	76:00:00	43QFA0565028153	2015-07-28T00:00:00.000Z	2015-07-28T00:00:00.000Z		1,2	
5	13035339	16466251	R M Railway	N	26.452578	80.332119				RR	R	IND	IN-UP		1							R M Railway		RMRAILWAY	26:27:09	80:19:56	44RMQ3341725978	2015-07-29T00:00:00.000Z	2015-07-29T00:00:00.000Z		1,2	
5	13035639	16466551	Cawnpore Bophwal Railway	N	26.452347	80.340294				RR	R	IND	IN-UP		1							Cawnpore Bophwal Railway		CAWNPOREBOPHWALRAILWAY	26:27:08	80:20:25	44RMQ3423225949	2015-07-29T00:00:00.000Z	2015-07-29T00:00:00.000Z		1,2	
5	13040383	16471346	Northern Railway Alīgarh Branch	N	28.250336	78.37403				RR	R	IND	IN-UP		1							Northern Railway Aligarh Branch		NORTHERNRAILWAYALIGARHBRANCH	28:15:01	78:22:27	44RKS4235727730	2015-07-29T00:00:00.000Z	2015-07-29T00:00:00.000Z		1,2	
5	13042744	16476419	Bohilkhand & Kumaun Railway	N	28.000867	79.887326				RR	R	IND	IN-UP		1							Bohilkhand & Kumaun Railway	RAILWAY	BOHILKHANDKUMAUNRAILWAY	28:00:03	79:53:14	44RLR9059697797	2015-07-29T00:00:00.000Z	2015-07-29T00:00:00.000Z		1,2	
5	13042744	16476631	Rilibhit Shāhjahānpur Extension	V	28.000867	79.887326				RR	R	IND	IN-UP									Rilibhit Shahjahanpur Extension		RILIBHITSHAHJAHANPUREXTENSION	28:00:03	79:53:14	44RLR9059697797	2015-07-29T00:00:00.000Z	2015-07-29T00:00:00.000Z		1,2	
5	13043509	16477204	Northern Railway Rāja ka Sahaspur Sambhal Hātim Sorāi Branch	N	28.596548	78.563745				RR	R	IND	IN-UP		1							Northern Railway Raja ka Sahaspur Sambhal Hatim Sorai Branch		NORTHERNRAILWAYRAJAKASAHASPURSAMBHALHATIMSORAIBRANCH	28:35:48	78:33:49	44RKS6175465713	2015-07-29T00:00:00.000Z	2015-07-29T00:00:00.000Z		1,2	
5	13051622	16479442	Northern Railway Bareilly Morādābād Loop	N	28.3648	78.999598				RR	R	IND	IN-UP		1							Northern Railway Bareilly Moradabad Loop		NORTHERNRAILWAYBAREILLYMORADABADLOOP	28:21:53	78:59:59	44RLS0396039240	2015-07-29T00:00:00.000Z	2015-07-29T00:00:00.000Z		1,2	
5	13056953	16491463	Mankapur Junction	N	27.036238	82.233574				RJCT	R	IND	IN-UP		1							Mankapur Junction		MANKAPURJUNCTION	27:02:10	82:14:01	44RPQ2235691048	2015-07-29T00:00:00.000Z	2015-07-29T00:00:00.000Z		1,2	
5	13063630	16498251	Bengal and North Western Railway	N	26.787331	82.208072				RR	R	IND	IN-UP		1							Bengal and North Western Railway		BENGALANDNORTHWESTERNRAILWAY	26:47:14	82:12:29	44RPQ2008963451	2015-07-30T00:00:00.000Z	2015-07-30T00:00:00.000Z		1,2	
5	13063630	16499096	Company’s Section Ajodhya Branch	V	26.787331	82.208072				RR	R	IND	IN-UP									Company's Section Ajodhya Branch		COMPANYSSECTIONAJODHYABRANCH	26:47:14	82:12:29	44RPQ2008963451	2015-07-30T00:00:00.000Z	2015-07-30T00:00:00.000Z		1,2	
5	13067272	16501934	East India Railway Lucknow Sultānpur Zafarābād Branch	N	26.268619	82.069201				RR	R	IND	IN-UP		1							East India Railway Lucknow Sultanpur Zafarabad Branch		EASTINDIARAILWAYLUCKNOWSULTANPURZAFARABADBRANCH	26:16:07	82:04:09	44RPQ0676205873	2015-07-30T00:00:00.000Z	2015-07-30T00:00:00.000Z		1,2	
5	13074908	16510083	North Eastern Railway Shāganj Branch	N	26.000165	83.059966				RR	R	IND	IN-UP		1							North Eastern Railway Shaganj Branch		NORTHEASTERNRAILWAYSHAGANJBRANCH	26:00:01	83:03:36	44RQP0618477327	2015-07-30T00:00:00.000Z	2015-07-30T00:00:00.000Z		1,2	
5	13081166	16516482	Company’s South Section Gogra Ganges Doab Lines Mau Shahganj Branch	V	26.059477	82.680423				RR	R	IND	IN-UP									Company's South Section Gogra Ganges Doab Lines Mau Shahganj Branch		COMPANYSSOUTHSECTIONGOGRAGANGESDOABLINESMAUSHAHGANJBRANCH	26:03:34	82:40:50	44RPP6810383354	2015-07-30T00:00:00.000Z	2015-07-30T00:00:00.000Z		1,2	
5	13081166	16516474	Bengal and North Western Railway	N	26.059477	82.680423				RR	R	IND	IN-UP		1							Bengal and North Western Railway		BENGALANDNORTHWESTERNRAILWAY	26:03:34	82:40:50	44RPP6810383354	2015-07-30T00:00:00.000Z	2015-07-30T00:00:00.000Z		1,2	
5	13088439	16524481	Cōl Wards Road	N	33.91189	75.008567				RD	R	IND	IN-JK		1							Col Wards Road	ROAD	COLWARDSROAD	33:54:43	75:00:31	43SET0079252387	2020-07-27T00:00:00.000Z	2015-07-31T00:00:00.000Z		1,2	
5	13096102	16532398	Bengal and North Western Railway	N	26.749685	83.423378				RR	R	IND	IN-UP		1							Bengal and North Western Railway		BENGALANDNORTHWESTERNRAILWAY	26:44:59	83:25:24	44RQQ4100961006	2015-07-31T00:00:00.000Z	2015-07-31T00:00:00.000Z		1,2	
5	13096102	16532433	Company’s Section Bagaha Branch	V	26.749685	83.423378				RR	R	IND	IN-UP									Company's Section Bagaha Branch		COMPANYSSECTIONBAGAHABRANCH	26:44:59	83:25:24	44RQQ4100961006	2015-07-31T00:00:00.000Z	2015-07-31T00:00:00.000Z		1,2	
5	13096111	16532434	Company’s Section Gorakhpur Tulsipur Gonda Loop	V	26.762245	83.371997				RR	R	IND	IN-UP									Company's Section Gorakhpur Tulsipur Gonda Loop		COMPANYSSECTIONGORAKHPURTULSIPURGONDALOOP	26:45:44	83:22:19	44RQQ3587162301	2015-07-31T00:00:00.000Z	2015-07-31T00:00:00.000Z		1,2	
5	13096111	16532407	Bengal and North Western Raioway	N	26.762245	83.371997				RR	R	IND	IN-UP		1							Bengal and North Western Raioway		BENGALANDNORTHWESTERNRAIOWAY	26:45:44	83:22:19	44RQQ3587162301	2015-07-31T00:00:00.000Z	2015-07-31T00:00:00.000Z		1,2	
5	13098776	16535126	Bengal and North Western Railway Siwān Captainganj Branch	N	26.930588	83.705558				RR	R	IND	IN-UP		1							Bengal and North Western Railway Siwan Captainganj Branch		BENGALANDNORTHWESTERNRAILWAYSIWANCAPTAINGANJBRANCH	26:55:50	83:42:20	44RQQ6865681622	2015-07-31T00:00:00.000Z	2015-07-31T00:00:00.000Z		1,2	
5	13100689	16537142	Bengal and North Western Railway Barhaj Branch	N	26.284223	83.727441				RR	R	IND	IN-UP		1							Bengal and North Western Railway Barhaj Branch		BENGALANDNORTHWESTERNRAILWAYBARHAJBRANCH	26:17:03	83:43:39	44RQQ7235910032	2015-07-31T00:00:00.000Z	2015-07-31T00:00:00.000Z		1,2	
5	13105910	16543073	East Indian Railway Tārī Ghāt Branch	N	25.568615	83.604008				RR	R	IND	IN-UP		1							East Indian Railway Tari Ghat Branch		EASTINDIANRAILWAYTARIGHATBRANCH	25:34:07	83:36:14	44RQP6160430479	2015-08-03T00:00:00.000Z	2015-08-03T00:00:00.000Z		1,2	
5	13110019	16547394	Bengal Nagpur Railway	N	23.385938	80.999938				RR	R	IND	IN-MP		1							Bengal Nagpur Railway		BENGALNAGPURRAILWAY	23:23:09	81:00:00	44QML9999486244	2015-08-04T00:00:00.000Z	2015-08-04T00:00:00.000Z		1,2	
5	13110019	16547429	Katni Branch	V	23.385938	80.999938				RR	R	IND	IN-MP									Katni Branch		KATNIBRANCH	23:23:09	81:00:00	44QML9999486244	2015-08-04T00:00:00.000Z	2015-08-04T00:00:00.000Z		1,2	
5	13117748	16557148	Northern Railroad Allahābād Jaunpur Branch	N	25.530225	81.867199				RR	R	IND	IN-UP		1						Branch	Northern Railroad Allahabad Jaunpur Branch	BRANCH	NORTHERNRAILROADALLAHABADJAUNPURBRANCH	25:31:49	81:52:02	44RNP8713223945	2015-08-04T00:00:00.000Z	2015-08-04T00:00:00.000Z		1,2	
5	13118121	16557640	Kāngra Valley Railway	N	32.271885	75.650594				RR	R	IND	IN-PB		1							Kangra Valley Railway	RAILWAY	KANGRAVALLEYRAILWAY	32:16:19	75:39:02	43SER6127170758	2015-08-04T00:00:00.000Z	2015-08-04T00:00:00.000Z		1,2	
5	13118955	16558493	NR Allahābād Faizābād Branch	N	25.44419	81.838875				RR	R	IND	IN-UP		1						Branch	NR Allahabad Faizabad Branch	BRANCH	NRALLAHABADFAIZABADBRANCH	25:26:39	81:50:20	44RNP8434614399	2015-08-04T00:00:00.000Z	2015-08-04T00:00:00.000Z		1,2	
5	13118958	16558496	North Eastern Railway Chhapra Vārānasi Allahābād Branch	N	25.44263	81.845442				RR	R	IND	IN-UP		1						Branch	North Eastern Railway Chhapra Varanasi Allahabad Branch	BRANCH	NORTHEASTERNRAILWAYCHHAPRAVARANASIALLAHABADBRANCH	25:26:33	81:50:44	44RNP8500714230	2015-08-04T00:00:00.000Z	2015-08-04T00:00:00.000Z		1,2	
5	13119897	16559728	Bombay Baroda and Central India Railway	N	23.000025	74.662009				RR	R	IND	IN-MP		1							Bombay Baroda and Central India Railway		BOMBAYBARODAANDCENTRALINDIARAILWAY	23:00:00	74:39:43	43QDF6536243562	2015-08-05T00:00:00.000Z	2015-08-05T00:00:00.000Z		1,2	
5	13119897	16559752	Godhra Ratlam Nagda Section	V	23.000025	74.662009				RR	R	IND	IN-MP									Godhra Ratlam Nagda Section		GODHRARATLAMNAGDASECTION	23:00:00	74:39:43	43QDF6536243562	2015-08-05T00:00:00.000Z	2015-08-05T00:00:00.000Z		1,2	
5	13122306	16562959	Great Indian Peninsula Railway Manmād Branch	N	20.066783	74.500072				RR	R	IND	IN-MH		1							Great Indian Peninsula Railway Manmad Branch		GREATINDIANPENINSULARAILWAYMANMADBRANCH	20:04:00	74:30:00	43QDC4772618950	2015-08-05T00:00:00.000Z	2015-08-05T00:00:00.000Z		1,2	
5	13122302	16562955	Hyderābād Godāvari Valley Railway	N	20.12788	74.499976				RR	R	IND	IN-MH		1							Hyderabad Godavari Valley Railway		HYDERABADGODAVARIVALLEYRAILWAY	20:07:40	74:30:00	43QDC4773725711	2015-08-05T00:00:00.000Z	2015-08-05T00:00:00.000Z		1,2	
5	13121647	16561573	Tāpti Valley Railway	N	21.358072	74.500055				RR	R	IND	IN-MH		1							Tapti Valley Railway		TAPTIVALLEYRAILWAY	21:21:29	74:30:00	43QDD4816661860	2015-08-05T00:00:00.000Z	2015-08-05T00:00:00.000Z		1,2	
5	13122317	16562970	Great Indian Peninsula Railway South-East Line Manmād Branch	N	20.000075	74.492556				RR	R	IND	IN-MH		1							Great Indian Peninsula Railway South-East Line Manmad Branch		GREATINDIANPENINSULARAILWAYSOUTHEASTLINEMANMADBRANCH	20:00:00	74:29:33	43QDC4691811570	2015-08-05T00:00:00.000Z	2015-08-05T00:00:00.000Z		1,2	
5	13125917	16567016	Baroda, and Central India Railway Pālanpur Deesa Section Bombay	N	24.169085	72.428805				RR	R	IND	IN-GJ		1							Baroda, and Central India Railway Palanpur Deesa Section Bombay		BARODA ANDCENTRALINDIARAILWAYPALANPURDEESASECTIONBOMBAY	24:10:09	72:25:44	43RBG3876575348	2015-08-05T00:00:00.000Z	2015-08-05T00:00:00.000Z		1,2	
5	13124047	16564854	Great Indian Pennisula Railway	N	20.468316	75.004474				RR	R	IND	IN-MH		1							Great Indian Pennisula Railway		GREATINDIANPENNISULARAILWAY	20:28:06	75:00:16	43QEC0046763307	2015-08-05T00:00:00.000Z	2015-08-05T00:00:00.000Z		1,2	
5	13126297	16567404	Bengal Nāgpur Railway Mandlā Branch	N	22.42429	80.11291				RR	R	IND	IN-MP		1							Bengal Nagpur Railway Mandla Branch		BENGALNAGPURRAILWAYMANDLABRANCH	22:25:27	80:06:46	44QMK0870680061	2015-08-05T00:00:00.000Z	2015-08-05T00:00:00.000Z		1,2	
5	13124047	16564938	North-East Line Dhulia Branch	V	20.468316	75.004474				RR	R	IND	IN-MH									North-East Line Dhulia Branch		NORTHEASTLINEDHULIABRANCH	20:28:06	75:00:16	43QEC0046763307	2015-08-05T00:00:00.000Z	2015-08-05T00:00:00.000Z		1,2	
5	13126793	16567950	Amritsar Patti Railway	N	31.138778	74.550951				RR	R	IND	NULL		1							Amritsar Patti Railway	RAILWAY	AMRITSARPATTIRAILWAY	31:08:20	74:33:03	43RDQ5719345069	2015-08-05T00:00:00.000Z	2015-08-05T00:00:00.000Z		1,2	
5	13126793	16567975	North West Railway	V	31.138778	74.550951				RR	R	IND	NULL									North West Railway	RAILWAY	NORTHWESTRAILWAY	31:08:20	74:33:03	43RDQ5719345069	2015-08-05T00:00:00.000Z	2015-08-05T00:00:00.000Z		1,2	
5	13126828	16567994	Chandrāvati	N	24.443516	72.741173		2015-08-05T00:00:00.000Z		RR	R	IND	IN-RJ		1							Chandravati		CHANDRAVATI	24:26:37	72:44:28	43RBH7100705200	2019-09-05T00:00:00.000Z	2019-09-05T00:00:00.000Z		1,2	
5	13128461	16569858	Raipur Forest Tramway	N	20.86684	81.704377				RR	R	IND	IN-CT		1							Raipur Forest Tramway		RAIPURFORESTTRAMWAY	20:52:01	81:42:16	44QNJ7327107571	2015-08-05T00:00:00.000Z	2015-08-05T00:00:00.000Z		1,2	
5	13130913	16572581	N W B Jullondur Doāb Extension	N	30.940186	74.631962				RR	R	IND	IN-PB		1							N W B Jullondur Doab Extension	EXTENSION	NWBJULLONDURDOABEXTENSION	30:56:25	74:37:55	43RDQ6484323031	2015-08-06T00:00:00.000Z	2015-08-06T00:00:00.000Z		1,2	
5	13132186	16573962	Northern Railway Jīnd Pānipat Branch	N	29.312376	76.306006				RR	R	IND	IN-HR		1							Northern Railway Jind Panipat Branch		NORTHERNRAILWAYJINDPANIPATBRANCH	29:18:45	76:18:22	43RFN2682643303	2015-08-06T00:00:00.000Z	2015-12-23T00:00:00.000Z		1,2	
5	13133042	16574946	North West Railroad Phillaur Extension	N	31.167009	75.203587				RR	R	IND	IN-PB		1							North West Railroad Phillaur Extension	EXTENSION	NORTHWESTRAILROADPHILLAUREXTENSION	31:10:01	75:12:13	43REQ1940248129	2015-08-06T00:00:00.000Z	2015-08-06T00:00:00.000Z		1,2	
5	13136211	16578348	S P Railway	N	31.11076	75.469773				RR	R	IND	IN-PB		1							S P Railway	RAILWAY	SPRAILWAY	31:06:39	75:28:11	43REQ4479641972	2015-08-07T00:00:00.000Z	2015-08-07T00:00:00.000Z		1,2	
5	13136211	16578353	Jullundur City Nakodar Branch	V	31.11076	75.469773				RR	R	IND	IN-PB									Jullundur City Nakodar Branch	BRANCH	JULLUNDURCITYNAKODARBRANCH	31:06:39	75:28:11	43REQ4479641972	2015-08-07T00:00:00.000Z	2015-08-07T00:00:00.000Z		1,2	
5	13136211	16578352	Jullundur Extension	V	31.11076	75.469773				RR	R	IND	IN-PB									Jullundur Extension	EXTENSION	JULLUNDUREXTENSION	31:06:39	75:28:11	43REQ4479641972	2015-08-07T00:00:00.000Z	2015-08-07T00:00:00.000Z		1,2	
5	13136292	16579614	Jodhpur Railway Maoli Mārwār Junction Chord Phulād Section	V	25.624446	73.813586				RR	R	IND	IN-RJ									Jodhpur Railway Maoli Marwar Junction Chord Phulad Section		JODHPURRAILWAYMAOLIMARWARJUNCTIONCHORDPHULADSECTION	25:37:28	73:48:49	43RCJ8088634628	2015-08-07T00:00:00.000Z	2015-08-07T00:00:00.000Z		1,2	
5	13136292	16578443	Western Railway Māvli Junction Mārwār Junction Section	N	25.624446	73.813586				RR	R	IND	IN-RJ		1							Western Railway Mavli Junction Marwar Junction Section		WESTERNRAILWAYMAVLIJUNCTIONMARWARJUNCTIONSECTION	25:37:28	73:48:49	43RCJ8088634628	2015-08-07T00:00:00.000Z	2015-08-07T00:00:00.000Z		1,2	
5	13139327	16581586	BB & CI Ry Malwa Section Main Line	N	23.179243	75.249781				RR	R	IND	IN-MP		1							BB & CI Ry Malwa Section Main Line		BBCIRYMALWASECTIONMAINLINE	23:10:45	75:14:59	43QEF2556463384	2015-08-07T00:00:00.000Z	2015-08-07T00:00:00.000Z		1,2	
5	13139084	16581320	Bengal-Nāgpur Railway Katnī Branch	N	22.061512	82.150364				RR	R	IND	IN-CT		1							Bengal-Nagpur Railway Katni Branch		BENGALNAGPURRAILWAYKATNIBRANCH	22:03:41	82:09:01	44QPK1869640083	2015-08-07T00:00:00.000Z	2015-08-07T00:00:00.000Z		1,2	
5	13141612	16584288	North-East Line Dhulia Branch	V	20.468476	75.004691				RR	R	IND	IN-MH									North-East Line Dhulia Branch		NORTHEASTLINEDHULIABRANCH	20:28:07	75:00:17	43QEC0048963324	2015-08-07T00:00:00.000Z	2015-08-07T00:00:00.000Z		1,2	
5	13141612	16584168	Great Indian Peninsula Railway	N	20.468476	75.004691				RR	R	IND	IN-MH		1							Great Indian Peninsula Railway		GREATINDIANPENINSULARAILWAY	20:28:07	75:00:17	43QEC0048963324	2015-08-07T00:00:00.000Z	2015-08-07T00:00:00.000Z		1,2	
5	13147769	16590620	S P Railway	N	31.108323	75.499981				RR	R	IND	IN-PB		1							S P Railway	RAILWAY	SPRAILWAY	31:06:30	75:30:00	43REQ4767741714	2015-08-10T00:00:00.000Z	2015-08-10T00:00:00.000Z		1,2	
5	13147769	16590635	Jullundur Doāb Extension	V	31.108323	75.499981				RR	R	IND	IN-PB									Jullundur Doab Extension	EXTENSION	JULLUNDURDOABEXTENSION	31:06:30	75:30:00	43REQ4767741714	2015-08-10T00:00:00.000Z	2015-08-10T00:00:00.000Z		1,2	
5	13147779	16590630	Phillaur Extension	N	31.054208	75.703683				RR	R	IND	IN-PB		1							Phillaur Extension	EXTENSION	PHILLAUREXTENSION	31:03:15	75:42:13	43REQ6714135822	2015-08-10T00:00:00.000Z	2015-08-10T00:00:00.000Z		1,2	
5	13147781	16590638	Hoshiārpur Doāb Branch Railways	N	31.210819	75.767544				RR	R	IND	IN-PB		1							Hoshiarpur Doab Branch Railways		HOSHIARPURDOABBRANCHRAILWAYS	31:12:39	75:46:03	43REQ7311453220	2015-08-10T00:00:00.000Z	2015-08-10T00:00:00.000Z		1,2	
5	13147781	16591141	North Western Railway Phagwāra Rāhon Branch	V	31.210819	75.767544				RR	R	IND	IN-PB									North Western Railway Phagwara Rahon Branch	BRANCH	NORTHWESTERNRAILWAYPHAGWARARAHONBRANCH	31:12:39	75:46:03	43REQ7311453220	2015-08-10T00:00:00.000Z	2015-08-10T00:00:00.000Z		1,2	
5	13153055	16596110	Western Railway Māoli Mārwār Section	N	25.000365	73.91189				RR	R	IND	IN-RJ		1							Western Railway Maoli Marwar Section		WESTERNRAILWAYMAOLIMARWARSECTION	25:00:01	73:54:43	43RCH9019565429	2015-08-11T00:00:00.000Z	2015-08-11T00:00:00.000Z		1,2	
5	13158983	16602350	Old Nawabi Road	N	27.175468	81.207917				RD	R	IND	IN-UP		1							Old Nawabi Road		OLDNAWABIROAD	27:10:32	81:12:29	44RNR2059605887	2015-08-12T00:00:00.000Z	2015-08-12T00:00:00.000Z		1,2	
5	13160727	16604198	Western Railway Rājputāna Section	N	26.111393	74.250671				RR	R	IND	IN-RJ		1							Western Railway Rajputana Section		WESTERNRAILWAYRAJPUTANASECTION	26:06:41	74:15:02	43RDJ2507888236	2015-08-13T00:00:00.000Z	2015-08-13T00:00:00.000Z		1,2	
5	13164906	16608990	Hoshiāupur Doāb Branch Railways Jaijon Extension	N	31.128622	76.109805				RR	R	IND	IN-PB		1							Hoshiaupur Doab Branch Railways Jaijon Extension	EXTENSION	HOSHIAUPURDOABBRANCHRAILWAYSJAIJONEXTENSION	31:07:43	76:06:35	43RFQ0580944386	2015-08-14T00:00:00.000Z	2015-08-14T00:00:00.000Z		1,2	
5	13175972	16623426	Kālka Simla Railway North Western Railway	N	30.842796	76.932207				RR	R	IND	IN-HP		1							Kalka Simla Railway North Western Railway	RAILWAY	KALKASIMLARAILWAYNORTHWESTERNRAILWAY	30:50:34	76:55:56	43RFQ8477913778	2015-08-17T00:00:00.000Z	2015-08-17T00:00:00.000Z		1,2	
5	13176258	16623747	Western Railway Rājasthān Section Main Line	N	26.905976	75.500087				RR	R	IND	IN-RJ		1							Western Railway Rajasthan Section Main Line		WESTERNRAILWAYRAJASTHANSECTIONMAINLINE	26:54:22	75:30:00	43REK4965876119	2015-08-17T00:00:00.000Z	2015-08-17T00:00:00.000Z		1,2	
5	13176340	16623956	Western Railway Jaipur Lohāru Section	N	26.930414	75.773048				RR	R	IND	IN-RJ		1							Western Railway Jaipur Loharu Section		WESTERNRAILWAYJAIPURLOHARUSECTION	26:55:49	75:46:23	43REK7674778962	2015-08-17T00:00:00.000Z	2015-08-17T00:00:00.000Z		1,2	
5	13176411	16624027	Western Railway Rājasthān Section Main Line	N	26.930242	75.773216				RR	R	IND	IN-RJ		1							Western Railway Rajasthan Section Main Line		WESTERNRAILWAYRAJASTHANSECTIONMAINLINE	26:55:49	75:46:24	43REK7676378944	2015-08-17T00:00:00.000Z	2015-08-17T00:00:00.000Z		1,2	
5	13178263	16627137	Hindustan Tibet Road	N	31.105353	77.175419				RD	R	IND	IN-HP		1							Hindustan Tibet Road	ROAD	HINDUSTANTIBETROAD	31:06:19	77:10:32	43RGQ0747343313	2015-08-18T00:00:00.000Z	2015-08-18T00:00:00.000Z		1,2	
5	13184610	16637993	Bengal Nāgpur Railway Raipur Vizianagaram Section	N	20.645972	82.749747				RR	R	IND	IN-OR		1							Bengal Nagpur Railway Raipur Vizianagaram Section		BENGALNAGPURRAILWAYRAIPURVIZIANAGARAMSECTION	20:38:45	82:44:59	44QPH8229683949	2015-08-18T00:00:00.000Z	2015-08-18T00:00:00.000Z		1,2	
5	13187434	16641172	West Railway Ujjain Agar Section	N	23.706106	75.999909				RR	R	IND	IN-MP		1							West Railway Ujjain Agar Section	SECTION	WESTRAILWAYUJJAINAGARSECTION	23:42:22	76:00:00	43QFG0193522047	2015-08-19T00:00:00.000Z	2015-08-19T00:00:00.000Z		1,2	
5	13189316	16642864	Western Railway Ujjain Bhopāl Branch	N	23.251806	76.000171				RR	R	IND	IN-MP		1							Western Railway Ujjain Bhopal Branch	BRANCH	WESTERNRAILWAYUJJAINBHOPALBRANCH	23:15:07	76:00:01	43QFF0231271748	2015-08-19T00:00:00.000Z	2015-08-19T00:00:00.000Z		1,2	
5	13189368	16642916	Western Railway Maksi Guna Section	N	23.255511	76.190376				RR	R	IND	IN-MP		1							Western Railway Maksi Guna Section	SECTION	WESTERNRAILWAYMAKSIGUNASECTION	23:15:20	76:11:25	43QFF2176772305	2015-08-19T00:00:00.000Z	2015-08-19T00:00:00.000Z		1,2	
5	13189553	16643102	National Highway Three	N	23.250899	76.148088				RD	R	IND	IN-MP		1							National Highway Three	HIGHWAY	NATIONALHIGHWAYTHREE	23:15:03	76:08:53	43QFF1744571759	2015-08-19T00:00:00.000Z	2015-08-19T00:00:00.000Z		1,2	
5	13190261	16643889	Hindustān Tibet Road	N	31.583332	78.271308				RD	R	IND	IN-HP		1							Hindustan Tibet Road		HINDUSTANTIBETROAD	31:35:00	78:16:17	44RKV4105797484	2015-08-19T00:00:00.000Z	2015-08-19T00:00:00.000Z		1,2	
5	13191388	16645170	East India Railway Rikhikesh Branch	N	30.040553	78.214308				RR	R	IND	IN-UT		1							East India Railway Rikhikesh Branch	BRANCH	EASTINDIARAILWAYRIKHIKESHBRANCH	30:02:26	78:12:52	44RKU3138326550	2015-08-19T00:00:00.000Z	2015-08-19T00:00:00.000Z		1,2	
5	13194176	16648215	Northern Railway Gajraula Chāndpur Siau Branch	N	28.832986	78.243354				RR	R	IND	IN-UP		1							Northern Railway Gajraula Chandpur Siau Branch	RAILWAY	NORTHERNRAILWAYGAJRAULACHANDPURSIAUBRANCH	28:49:59	78:14:36	44RKS3101692604	2015-08-19T00:00:00.000Z	2015-08-19T00:00:00.000Z		1,2	
5	13194285	16648324	Mela Siding	N	28.779851	78.081306				RR	R	IND	IN-UP		1							Mela Siding		MELASIDING	28:46:47	78:04:53	44RKS1505387092	2015-08-19T00:00:00.000Z	2015-08-19T00:00:00.000Z		1,2	
5	13195083	16649143	O & R Railway	N	28.001152	78.137352				RR	R	IND	IN-UP		1							O & R Railway	RAILWAY	ORRAILWAY	28:00:04	78:08:14	44RKS1847400634	2015-08-20T00:00:00.000Z	2015-08-20T00:00:00.000Z		1,2	
5	13195083	16649255	Bareilly Alīgarh Branch	V	28.001152	78.137352				RR	R	IND	IN-UP									Bareilly Aligarh Branch		BAREILLYALIGARHBRANCH	28:00:04	78:08:14	44RKS1847400634	2015-08-20T00:00:00.000Z	2015-08-20T00:00:00.000Z		1,2	
5	13195523	16649604	Western Railway Ruthiyai Maksi Section	N	23.42338	76.294002				RR	R	IND	IN-MP		1							Western Railway Ruthiyai Maksi Section	SECTION	WESTERNRAILWAYRUTHIYAIMAKSISECTION	23:25:24	76:17:38	43QFF3220290983	2015-08-20T00:00:00.000Z	2015-08-20T00:00:00.000Z		1,2	
5	13196244	16650357	Rāmnagar Extension	N	28.834508	78.81424				RR	R	IND	IN-UP		1							Ramnagar Extension		RAMNAGAREXTENSION	28:50:04	78:48:51	44RKS8674191613	2015-08-20T00:00:00.000Z	2015-08-20T00:00:00.000Z		1,2	
5	13196248	16650361	Northern Railway Main Line	N	28.821086	78.77789				RR	R	IND	IN-UP		1							Northern Railway Main Line	MAINLINE	NORTHERNRAILWAYMAINLINE	28:49:16	78:46:40	44RKS8316690191	2015-08-20T00:00:00.000Z	2015-08-20T00:00:00.000Z		1,2	
5	13201762	16659119	Bengal Nagpur Railway Sambalpur Branch	N	21.484462	83.95704				RR	R	IND	IN-OR		1							Bengal Nagpur Railway Sambalpur Branch		BENGALNAGPURRAILWAYSAMBALPURBRANCH	21:29:04	83:57:25	44QRJ0641978664	2015-08-20T00:00:00.000Z	2015-08-20T00:00:00.000Z		1,2	
5	13205892	16664104	Burhwal Sītāpur Branch	V	27.088942	81.392404				RR	R	IND	IN-UP									Burhwal Sitapur Branch		BURHWALSITAPURBRANCH	27:05:20	81:23:33	44RNQ3890296347	2015-08-21T00:00:00.000Z	2015-08-21T00:00:00.000Z		1,2	
5	13205892	16663615	Bal and North Western Railway	N	27.088942	81.392404				RR	R	IND	IN-UP		1						Railway	Bal and North Western Railway	RAILWAY	BALANDNORTHWESTERNRAILWAY	27:05:20	81:23:33	44RNQ3890296347	2015-08-21T00:00:00.000Z	2015-08-21T00:00:00.000Z		1,2	
5	13216019	16674467	M & S M R Nidadavole Narasapur Branch	N	16.443006	81.699344				RR	R	IND	IN-AP		1							M & S M R Nidadavole Narasapur Branch		MSMRNIDADAVOLENARASAPURBRANCH	16:26:35	81:41:58	44QND7465818068	2015-08-24T00:00:00.000Z	2015-08-24T00:00:00.000Z		1,2	
5	13215384	16673810	Western Railway Indore Dewās Ujjain Branch	N	22.937406	76.000277				RR	R	IND	IN-MP		1						Branch	Western Railway Indore Dewas Ujjain Branch	BRANCH	WESTERNRAILWAYINDOREDEWASUJJAINBRANCH	22:56:15	76:00:01	43QFF0256136940	2015-08-24T00:00:00.000Z	2015-08-24T00:00:00.000Z		1,2	
5	13218558	16678711	Munamalūr Ghāt	N	17.97614	82.73221				RD	R	IND	IN-AP		1							Munamalur Ghat		MUNAMALURGHAT	17:58:34	82:43:56	44QPE8342488402	2015-08-25T00:00:00.000Z	2015-08-25T00:00:00.000Z		1,2	
5	13219778	16680422	Siwān-Captainganj Branch	N	26.21263	84.351282				RR	R	IND	IN-BR		1							Siwan-Captainganj Branch	BRANCH	SIWANCAPTAINGANJBRANCH	26:12:45	84:21:05	45RTK3534401935	2015-08-25T00:00:00.000Z	2015-08-27T00:00:00.000Z		1,2	
5	13221162	16682387	Cocanāda Branch	V	16.940505	82.250502				RR	R	IND	IN-AP									Cocanada Branch		COCANADABRANCH	16:56:26	82:15:02	44QPD3315873397	2015-08-25T00:00:00.000Z	2015-08-25T00:00:00.000Z		1,2	
5	13221162	16682385	Madras and South Mahratta Railway	N	16.940505	82.250502				RR	R	IND	IN-AP		1							Madras and South Mahratta Railway		MADRASANDSOUTHMAHRATTARAILWAY	16:56:26	82:15:02	44QPD3315873397	2015-08-25T00:00:00.000Z	2015-08-25T00:00:00.000Z		1,2	
5	13220146	16680770	Bengal and North Western Railway Māhārājganj Branch	N	26.083404	84.462285				RR	R	IND	IN-BR		1							Bengal and North Western Railway Maharajganj Branch	BRANCH	BENGALANDNORTHWESTERNRAILWAYMAHARAJGANJBRANCH	26:05:00	84:27:44	45RTJ4616087393	2015-08-25T00:00:00.000Z	2015-08-27T00:00:00.000Z		1,2	
5	13227846	16689394	Nizām’s Guaranteed State Railway	N	16.524824	80.621107				RR	R	IND	IN-AP		1							Nizam's Guaranteed State Railway		NIZAMSGUARANTEEDSTATERAILWAY	16:31:29	80:37:16	44QMD5956927028	2015-08-25T00:00:00.000Z	2015-08-25T00:00:00.000Z		1,2	
5	13229430	16691141	Madras and Southern Mahratta Railway Gudivāda Bhīmavaram Branch	N	16.426087	80.994464				RR	R	IND	IN-AP		1							Madras and Southern Mahratta Railway Gudivada Bhimavaram Branch		MADRASANDSOUTHERNMAHRATTARAILWAYGUDIVADABHIMAVARAMBRANCH	16:25:34	80:59:40	44QMD9940916068	2015-08-26T00:00:00.000Z	2015-08-26T00:00:00.000Z		1,2	
5	13232267	16694598	Bengal Nāgpur Railway Bobbili Sālūr Branch	N	18.525602	83.201992				RR	R	IND	IN-AP		1							Bengal Nagpur Railway Bobbili Salur Branch		BENGALNAGPURRAILWAYBOBBILISALURBRANCH	18:31:32	83:12:07	44QQF3245449757	2015-08-26T00:00:00.000Z	2015-08-26T00:00:00.000Z		1,2	
5	13233156	16695516	Gujarāt Nadiad Kapdvanj Railway	N	23.000095	73.050464				RR	R	IND	IN-GJ		1							Gujarat Nadiad Kapdvanj Railway		GUJARATNADIADKAPDVANJRAILWAY	23:00:00	73:03:02	43QCF0018244859	2015-08-26T00:00:00.000Z	2015-08-26T00:00:00.000Z		1,2	
5	13233156	16695849	Baroda And Central India Railway Bombay	V	23.000095	73.050464				RR	R	IND	IN-GJ									Baroda And Central India Railway Bombay		BARODAANDCENTRALINDIARAILWAYBOMBAY	23:00:00	73:03:02	43QCF0018244859	2015-08-26T00:00:00.000Z	2015-08-26T00:00:00.000Z		1,2	
5	13237134	16699657	Parlākimidi Light Railway	N	18.818878	83.999955				RR	R	IND	IN-OR		2							Parlakimidi Light Railway		PARLAKIMIDILIGHTRAILWAY	18:49:08	84:00:00	44QRF1620083459	2021-02-12T00:00:00.000Z	2021-02-12T00:00:00.000Z		1,2	
5	13237134	19806428	Parlakimidi	N	18.818878	83.999955				RR	R	IND	IN-OR		1							Parlakimidi		PARLAKIMIDI	18:49:08	84:00:00	44QRF1620083459	2021-02-12T00:00:00.000Z	2021-02-12T00:00:00.000Z		1,2	
5	13237134	16699888	Bengal Nagpur Railway	V	18.818878	83.999955				RR	R	IND	IN-OR									Bengal Nagpur Railway		BENGALNAGPURRAILWAY	18:49:08	84:00:00	44QRF1620083459	2021-02-12T00:00:00.000Z	2015-08-27T00:00:00.000Z		1,2	
5	13235088	16697671	Raipur Vizianagaram Section	V	18.112208	83.39554				RR	R	IND	IN-AP									Raipur Vizianagaram Section		RAIPURVIZIANAGARAMSECTION	18:06:44	83:23:44	44QQF5349704248	2015-08-27T00:00:00.000Z	2015-08-27T00:00:00.000Z		1,2	
5	13235088	16697555	Bengal Nāgpur Railway	N	18.112208	83.39554				RR	R	IND	IN-AP		1							Bengal Nagpur Railway		BENGALNAGPURRAILWAY	18:06:44	83:23:44	44QQF5349704248	2015-08-27T00:00:00.000Z	2015-08-27T00:00:00.000Z		1,2	
5	13239820	16702500	Madras Calcutta Road	N	15.514028	80.03594				RD	R	IND	IN-AP		1							Madras Calcutta Road		MADRASCALCUTTAROAD	15:30:51	80:02:09	44PLC9660415414	2015-08-27T00:00:00.000Z	2015-08-27T00:00:00.000Z		1,2	
5	13247267	16711613	Jodhpur Railway Pīpār-Bilāra Light Railway	N	26.186006	73.702471				RR	R	IND	IN-RJ		1							Jodhpur Railway Pipar-Bilara Light Railway		JODHPURRAILWAYPIPARBILARALIGHTRAILWAY	26:11:10	73:42:09	43RCJ7034596931	2015-08-31T00:00:00.000Z	2015-08-31T00:00:00.000Z		1,2	
5	13247381	16712045	Kāshīpur Extension	V	29.305432	79.020282				RR	R	IND	IN-UT									Kashipur Extension		KASHIPUREXTENSION	29:18:20	79:01:13	44RLT0772543452	2015-08-31T00:00:00.000Z	2015-08-31T00:00:00.000Z		1,2	
5	13247381	16711751	Rohilkhand And Kumaun Railway	N	29.305432	79.020282				RR	R	IND	IN-UT		1							Rohilkhand And Kumaun Railway		ROHILKHANDANDKUMAUNRAILWAY	29:18:20	79:01:13	44RLT0772543452	2015-08-31T00:00:00.000Z	2015-08-31T00:00:00.000Z		1,2	
5	13251789	16717133	Godhra Rutlam Nagda Railway	N	22.844457	74.250067				RR	R	IND	IN-GJ		1							Godhra Rutlam Nagda Railway		GODHRARUTLAMNAGDARAILWAY	22:50:40	74:15:00	43QDF2305626497	2015-08-31T00:00:00.000Z	2015-08-31T00:00:00.000Z		1,2	
5	13252841	16718250	Western Railway Maoli Kānkroli Section	N	24.79733	73.979057				RR	R	IND	IN-RJ		1							Western Railway Maoli Kankroli Section		WESTERNRAILWAYMAOLIKANKROLISECTION	24:47:50	73:58:45	43RCH9680542892	2015-09-01T00:00:00.000Z	2015-09-01T00:00:00.000Z		1,2,3	
5	13256308	16722031	Bengal and North Western Railway	N	25.786147	84.750927				RR	R	IND	IN-BR		1							Bengal and North Western Railway		BENGALANDNORTHWESTERNRAILWAY	25:47:10	84:45:03	45RTJ7447653927	2015-09-01T00:00:00.000Z	2015-09-01T00:00:00.000Z		1,2	
5	13256308	16723367	Masrakh Branch	V	25.786147	84.750927				RR	R	IND	IN-BR									Masrakh Branch		MASRAKHBRANCH	25:47:10	84:45:03	45RTJ7447653927	2015-09-01T00:00:00.000Z	2015-09-01T00:00:00.000Z		1,2	
5	13259178	16726969	Tirhut Railway Samāstipur Darbhangā Narkatiāganj Loop	N	27.104119	84.46772				RR	R	IND	IN-BR		1						Loop	Tirhut Railway Samastipur Darbhanga Narkatiaganj Loop	LOOP	TIRHUTRAILWAYSAMASTIPURDARBHANGANARKATIAGANJLOOP	27:06:15	84:28:04	45RTL4894300496	2015-09-01T00:00:00.000Z	2015-09-01T00:00:00.000Z		1,2	
5	13259160	16726951	Tirhut Railway Bhikhna Thorī Branch	N	27.104415	84.46698				RR	R	IND	IN-BR		1							Tirhut Railway Bhikhna Thori Branch		TIRHUTRAILWAYBHIKHNATHORIBRANCH	27:06:16	84:28:01	45RTL4887000531	2015-09-01T00:00:00.000Z	2015-09-01T00:00:00.000Z		1,2	
5	13264244	16733149	Bhawānipur-Mairwa	N	26.241994	84.153487				RR	R	IND	IN-BR		1							Bhawanipur-Mairwa		BHAWANIPURMAIRWA	26:14:31	84:09:13	45RTK1564205609	2015-09-02T00:00:00.000Z	2015-09-02T00:00:00.000Z		1,2	
5	13267253	16736970	Bengal and North Western Railway Raxaul Branch	V	26.756593	84.744603				RR	R	IND	IN-BR									Bengal and North Western Railway Raxaul Branch		BENGALANDNORTHWESTERNRAILWAYRAXAULBRANCH	26:45:24	84:44:41	45RTK7571661464	2015-09-02T00:00:00.000Z	2015-09-02T00:00:00.000Z		1,2	
5	13267253	16736954	Tirhut Railway	N	26.756593	84.744603				RR	R	IND	IN-BR		1							Tirhut Railway		TIRHUTRAILWAY	26:45:24	84:44:41	45RTK7571661464	2015-09-02T00:00:00.000Z	2015-09-02T00:00:00.000Z		1,2	
5	13268759	16738537	Sherring Road	N	29.190035	80.000327				RD	R	IND	IN-UT		1							Sherring Road	ROAD	SHERRINGROAD	29:11:24	80:00:01	44RMT0280829454	2015-09-03T00:00:00.000Z	2016-01-04T00:00:00.000Z		1,2	
5	13267335	16737033	Tāpti Valley Railway	N	21.374278	74.250083				RR	R	IND	IN-MH		1							Tapti Valley Railway		TAPTIVALLEYRAILWAY	21:22:27	74:15:00	43QDD2225663756	2015-09-02T00:00:00.000Z	2015-09-02T00:00:00.000Z		1,2	
5	13270842	16740729	Oudh and Tirhut Railway Main Line	N	28.498401	79.450484				RR	R	IND	IN-UP		1							Oudh and Tirhut Railway Main Line	MAINLINE	OUDHANDTIRHUTRAILWAYMAINLINE	28:29:54	79:27:02	44RLS4834453393	2015-09-03T00:00:00.000Z	2015-09-03T00:00:00.000Z		1,2	
5	13270832	16740719	Rohilkhand & Kumaon Railway	N	28.383642	79.421255				RR	R	IND	IN-UP		1							Rohilkhand & Kumaon Railway	RAILWAY	ROHILKHANDKUMAONRAILWAY	28:23:01	79:25:17	44RLS4531640715	2015-09-03T00:00:00.000Z	2015-09-03T00:00:00.000Z		1,2	
5	13270719	16740606	Lucknow Bareilly Section	N	28.385341	79.422735				RR	R	IND	IN-UP		1							Lucknow Bareilly Section	SECTION	LUCKNOWBAREILLYSECTION	28:23:07	79:25:22	44RLS4546440901	2015-09-03T00:00:00.000Z	2015-09-03T00:00:00.000Z		1,2	
5	13270645	16740532	East Indian Railway	N	28.293008	79.363123				RR	R	IND	IN-UP		1							East Indian Railway	RAILWAY	EASTINDIANRAILWAY	28:17:35	79:21:47	44RLS3948330748	2015-09-03T00:00:00.000Z	2015-09-03T00:00:00.000Z		1,2	
5	13271780	16741828	Bomby Baroda and Central India	V	23.832669	72.999912				RR	R	IND	IN-GJ									Bomby Baroda and Central India		BOMBYBARODAANDCENTRALINDIA	23:49:58	73:00:00	43QBG9627937138	2015-09-03T00:00:00.000Z	2015-09-03T00:00:00.000Z		1,2	
5	13271780	16741735	Ahmadābād Parantij Railway	N	23.832669	72.999912				RR	R	IND	IN-GJ		1							Ahmadabad Parantij Railway		AHMADABADPARANTIJRAILWAY	23:49:58	73:00:00	43QBG9627937138	2015-09-03T00:00:00.000Z	2015-09-03T00:00:00.000Z		1,2	
5	13270841	16740728	Oudh and Tirhut Railway	N	28.498286	79.450855				RR	R	IND	IN-UP		1							Oudh and Tirhut Railway	RAILWAY	OUDHANDTIRHUTRAILWAY	28:29:54	79:27:03	44RLS4838053380	2015-09-03T00:00:00.000Z	2015-09-03T00:00:00.000Z		1,2	
5	13274482	16744604	Tirhut Railway Bachhwara - Bagahā Branch	N	26.474149	85.000039				RR	R	IND	IN-BR		1							Tirhut Railway Bachhwara - Bagaha Branch		TIRHUTRAILWAYBACHHWARABAGAHABRANCH	26:28:27	85:00:00	45RUK0063429746	2015-09-03T00:00:00.000Z	2015-09-03T00:00:00.000Z		1,2	
5	13282396	16757322	Arrah-sasarām Light Ry	N	24.957303	84.027935				RR	R	IND	IN-BR		1							Arrah-sasaram Light Ry		ARRAHSASARAMLIGHTRY	24:57:26	84:01:41	45RSH9989963506	2015-09-08T00:00:00.000Z	2015-09-08T00:00:00.000Z		1,2	
5	13283747	16757813	PWD Tramway	N	24.907675	84.070258				RR	R	IND	IN-BR		1							PWD Tramway		PWDTRAMWAY	24:54:28	84:04:13	45RTH0405657913	2015-09-08T00:00:00.000Z	2015-09-08T00:00:00.000Z		1,2	
5	13285134	16759332	East India Railway Bārum - Daltonganj Branch	N	24.035705	84.073556				RR	R	IND	IN-JH		1							East India Railway Barum - Daltonganj Branch		EASTINDIARAILWAYBARUMDALTONGANJBRANCH	24:02:09	84:04:25	45RTG0234361278	2015-09-08T00:00:00.000Z	2015-09-08T00:00:00.000Z		1,2	
5	13283753	16757819	East India Railroad Barka Kāna Loop	N	24.764732	84.172188				RR	R	IND	IN-BR		1							East India Railroad Barka Kana Loop		EASTINDIARAILROADBARKAKANALOOP	24:45:53	84:10:20	45RTH1402941855	2015-09-08T00:00:00.000Z	2015-09-08T00:00:00.000Z		1,2	
5	13285588	16759869	East India Railway Barkā Kānā Loop	N	23.844809	84.109305				RR	R	IND	IN-JH		1							East India Railway Barka Kana Loop		EASTINDIARAILWAYBARKAKANALOOP	23:50:41	84:06:33	45QTG0554840049	2015-09-08T00:00:00.000Z	2015-09-08T00:00:00.000Z		1,2	
5	13294348	16772350	Tirhut Railway	N	25.421655	85.982704				RR	R	IND	IN-BR		1							Tirhut Railway		TIRHUTRAILWAY	25:25:18	85:58:58	45RUJ9769512028	2015-09-14T00:00:00.000Z	2015-09-14T00:00:00.000Z		1,2	
5	13294348	16772410	Bengal and North Western Railway Simaria Ghāt Extention	V	25.421655	85.982704				RR	R	IND	IN-BR									Bengal and North Western Railway Simaria Ghat Extention		BENGALANDNORTHWESTERNRAILWAYSIMARIAGHATEXTENTION	25:25:18	85:58:58	45RUJ9769512028	2015-09-14T00:00:00.000Z	2015-09-14T00:00:00.000Z		1,2	
5	13305502	16796026	Madras and Southern Mahratta Railway Main Line	N	15.442943	75.000171				RR	R	IND	IN-KA		1							Madras and Southern Mahratta Railway Main Line		MADRASANDSOUTHERNMAHRATTARAILWAYMAINLINE	15:26:35	75:00:01	43PET0001807318	2015-09-18T00:00:00.000Z	2015-09-18T00:00:00.000Z		1,2,3	
5	13306706	16798188	Madras And Southern Mahratta Railway Bijāpur Branch	N	15.437426	75.625905				RR	R	IND	IN-KA		1							Madras And Southern Mahratta Railway Bijapur Branch		MADRASANDSOUTHERNMAHRATTARAILWAYBIJAPURBRANCH	15:26:15	75:37:33	43PET6715206806	2015-09-21T00:00:00.000Z	2015-09-21T00:00:00.000Z		1,2,3	
5	13322039	16816533	Bellary - Bangalore Road	N	13.014556	77.583745				RD	R	IND	IN-KA		1							Bellary - Bangalore Road		BELLARYBANGALOREROAD	13:00:52	77:35:01	43PGQ8025440169	2015-09-23T00:00:00.000Z	2015-09-23T00:00:00.000Z		1,2	
5	13321761	16816534	Mysore Railway	V	13.111509	77.588335				RR	R	IND	IN-KA									Mysore Railway		MYSORERAILWAY	13:06:41	77:35:18	43PGQ8064350906	2015-09-23T00:00:00.000Z	2015-09-23T00:00:00.000Z		1,2	
5	13320727	16815368	Madras and Southern Mahratta Railway Guntakal Mysore Frontier Branch	N	13.71173	77.513733				RR	R	IND	IN-AP		1							Madras and Southern Mahratta Railway Guntakal Mysore Frontier Branch		MADRASANDSOUTHERNMAHRATTARAILWAYGUNTAKALMYSOREFRONTIERBRANCH	13:42:42	77:30:49	43PGR7187317260	2015-09-23T00:00:00.000Z	2015-09-23T00:00:00.000Z		1,2	
5	13321834	16816143	Madras and Southern Mahratta Railway	V	13.037769	77.54454				RR	R	IND	IN-KA									Madras and Southern Mahratta Railway		MADRASANDSOUTHERNMAHRATTARAILWAY	13:02:16	77:32:40	43PGQ7597442696	2015-09-23T00:00:00.000Z	2015-09-23T00:00:00.000Z		1,2	
5	13321834	16816326	Hindupur Railway	N	13.037769	77.54454				RR	R	IND	IN-KA		1							Hindupur Railway		HINDUPURRAILWAY	13:02:16	77:32:40	43PGQ7597442696	2015-09-23T00:00:00.000Z	2015-09-23T00:00:00.000Z		1,2	
5	13321761	16816272	Bangalore Chik Ballāpur Light Railway	N	13.111509	77.588335				RR	R	IND	IN-KA		1							Bangalore Chik Ballapur Light Railway		BANGALORECHIKBALLAPURLIGHTRAILWAY	13:06:41	77:35:18	43PGQ8064350906	2015-09-23T00:00:00.000Z	2015-09-23T00:00:00.000Z		1,2	
5	13321834	16816142	Yesvantpur Mysore Frontier Railway	V	13.037769	77.54454				RR	R	IND	IN-KA									Yesvantpur Mysore Frontier Railway		YESVANTPURMYSOREFRONTIERRAILWAY	13:02:16	77:32:40	43PGQ7597442696	2015-09-23T00:00:00.000Z	2015-09-23T00:00:00.000Z		1,2	
5	13323366	16818633	Madras And Southern Mahratta Railway Harihar Branch	N	14.520472	75.796368				RR	R	IND	IN-KA		1							Madras And Southern Mahratta Railway Harihar Branch		MADRASANDSOUTHERNMAHRATTARAILWAYHARIHARBRANCH	14:31:14	75:47:47	43PES8580605439	2015-09-23T00:00:00.000Z	2015-09-23T00:00:00.000Z		1,2	
5	13328202	16825024	Mysore Railways Shimoga Sāgar Section	N	13.931499	75.589099				RR	R	IND	IN-KA		1							Mysore Railways Shimoga Sagar Section		MYSORERAILWAYSSHIMOGASAGARSECTION	13:55:53	75:35:21	43PER6363740229	2015-09-25T00:00:00.000Z	2015-09-25T00:00:00.000Z		1,2	
5	13325939	16821757	Sirgere Junction	N	13.952441	75.429194				RJCT	R	IND	IN-KA		1							Sirgere Junction		SIRGEREJUNCTION	13:57:09	75:25:45	43PER4635942508	2015-09-24T00:00:00.000Z	2015-09-24T00:00:00.000Z		1,2,3	
5	13331222	16828180	Bengal Nāgpur Railway Sātpurā Railway Main Line	N	19.93857	79.311044				RR	R	IND	IN-MH		1							Bengal Nagpur Railway Satpura Railway Main Line		BENGALNAGPURRAILWAYSATPURARAILWAYMAINLINE	19:56:19	79:18:40	44QLH2323805572	2015-09-25T00:00:00.000Z	2015-09-25T00:00:00.000Z		1,2	
5	13331164	16828091	Mangalore Chikmugalūr Road	N	13.244281	75.652714				RD	R	IND	IN-KA		1							Mangalore Chikmugalur Road		MANGALORECHIKMUGALURROAD	13:14:39	75:39:10	43PEQ7071364242	2015-09-25T00:00:00.000Z	2015-09-25T00:00:00.000Z		1,2	
5	13328309	16825179	Tarikere Narasimharājapura Railway	N	13.537115	75.561003				RR	R	IND	IN-KA		1							Tarikere Narasimharajapura Railway		TARIKERENARASIMHARAJAPURARAILWAY	13:32:14	75:33:40	43PEQ6070396604	2015-09-25T00:00:00.000Z	2015-09-25T00:00:00.000Z		1,2	
5	13331169	16828107	Great Indian Peninsula Railway North East Line Belhārshāh Branch	N	19.938913	79.310639				RR	R	IND	IN-MH		1							Great Indian Peninsula Railway North East Line Belharshah Branch		GREATINDIANPENINSULARAILWAYNORTHEASTLINEBELHARSHAHBRANCH	19:56:20	79:18:38	44QLH2319605610	2015-09-25T00:00:00.000Z	2015-09-25T00:00:00.000Z		1,2	
5	13336586	16838609	Mysore Railways Birūr Shimoga Section	N	13.613107	75.957625				RR	R	IND	IN-KA		1							Mysore Railways Birur Shimoga Section		MYSORERAILWAYSBIRURSHIMOGASECTION	13:36:47	75:57:27	43PFR0359005142	2015-09-29T00:00:00.000Z	2015-09-29T00:00:00.000Z		1,2	
5	13337618	16839849	Chikmugalūr Hassan Road	N	12.995784	76.082229				RD	R	IND	IN-KA		1							Chikmugalur Hassan Road		CHIKMUGALURHASSANROAD	12:59:45	76:04:56	43PFQ1736736919	2015-09-29T00:00:00.000Z	2015-09-29T00:00:00.000Z		1,2	
5	13342765	16850505	Madras and Southern Mahratta Railway Hospet Kotturu Branch	N	14.828077	76.214539				RR	R	IND	IN-KA		1							Madras and Southern Mahratta Railway Hospet Kotturu Branch		MADRASANDSOUTHERNMAHRATTARAILWAYHOSPETKOTTURUBRANCH	14:49:41	76:12:52	43PFS3068439665	2015-09-29T00:00:00.000Z	2015-09-29T00:00:00.000Z		1,2	
5	13352024	16868341	Madras Railway Chikjājūr Chitaldrug Section	N	14.130362	76.137815				RR	R	IND	IN-KA		1							Madras Railway Chikjajur Chitaldrug Section		MADRASRAILWAYCHIKJAJURCHITALDRUGSECTION	14:07:49	76:08:16	43PFR2281162442	2015-09-30T00:00:00.000Z	2015-09-30T00:00:00.000Z		1,2	
5	13352660	16869097	Tirhut Railway Samāstipur Darbhanga Narkatiāganj Loop	N	25.865054	85.778969				RR	R	IND	IN-BR		1							Tirhut Railway Samastipur Darbhanga Narkatiaganj Loop	RAILWAY	TIRHUTRAILWAYSAMASTIPURDARBHANGANARKATIAGANJLOOP	25:51:54	85:46:44	45RUJ7765761308	2015-09-30T00:00:00.000Z	2015-09-30T00:00:00.000Z		1,2	
5	13352660	16869104	Bengel and North Western Railway Samāstipur Darbhanga Narkatiāganj Loop	V	25.865054	85.778969				RR	R	IND	IN-BR									Bengel and North Western Railway Samastipur Darbhanga Narkatiaganj Loop	RAILWAY	BENGELANDNORTHWESTERNRAILWAYSAMASTIPURDARBHANGANARKATIAGANJLOOP	25:51:54	85:46:44	45RUJ7765761308	2015-09-30T00:00:00.000Z	2015-09-30T00:00:00.000Z		1,2	
5	13352817	16869237	Tirhut Railway Bachwāra Bagaha Branch	N	25.586978	85.89693				RR	R	IND	IN-BR		1							Tirhut Railway Bachwara Bagaha Branch	BRANCH	TIRHUTRAILWAYBACHWARABAGAHABRANCH	25:35:13	85:53:49	45RUJ8922030406	2015-09-30T00:00:00.000Z	2015-09-30T00:00:00.000Z		1,2	
5	13352817	16869555	Bengal & North Western Railway	V	25.586978	85.89693				RR	R	IND	IN-BR									Bengal & North Western Railway	RAILWAY	BENGALNORTHWESTERNRAILWAY	25:35:13	85:53:49	45RUJ8922030406	2015-09-30T00:00:00.000Z	2015-09-30T00:00:00.000Z		1,2	
5	13357220	16871466	Madras and Southern Mahratta Railway Swāmihalli Branch	N	14.977739	76.612857				RR	R	IND	IN-KA		1							Madras and Southern Mahratta Railway Swamihalli Branch		MADRASANDSOUTHERNMAHRATTARAILWAYSWAMIHALLIBRANCH	14:58:40	76:36:46	43PFS7343256495	2015-10-01T00:00:00.000Z	2015-10-01T00:00:00.000Z		1,2	
5	13358259	16875922	Madras and Southern Mahratta Railway Bellary Rāyadrug Branch	N	14.706233	76.857117				RR	R	IND	IN-AP		1							Madras and Southern Mahratta Railway Bellary Rayadrug Branch		MADRASANDSOUTHERNMAHRATTARAILWAYBELLARYRAYADRUGBRANCH	14:42:22	76:51:26	43PFS9995526657	2015-10-01T00:00:00.000Z	2015-10-01T00:00:00.000Z		1,2	
5	13362166	16881267	Tirhut Railway Darbhanga Bhaptiāhi Branch	N	26.165725	85.906123				RR	R	IND	IN-BR		1						Railway	Tirhut Railway Darbhanga Bhaptiahi Branch	RAILWAY	TIRHUTRAILWAYDARBHANGABHAPTIAHIBRANCH	26:09:57	85:54:22	45RUJ9067794497	2015-10-02T00:00:00.000Z	2015-10-02T00:00:00.000Z		1,2	
5	13362166	16881614	Bengal and North Western Railway Darbhanga Bhaptiāhi Branch	V	26.165725	85.906123				RR	R	IND	IN-BR								Railway	Bengal and North Western Railway Darbhanga Bhaptiahi Branch	RAILWAY	BENGALANDNORTHWESTERNRAILWAYDARBHANGABHAPTIAHIBRANCH	26:09:57	85:54:22	45RUJ9067794497	2015-10-02T00:00:00.000Z	2015-10-02T00:00:00.000Z		1,2	
5	13362382	16881483	Tirhut Railway Jaynagar Branch	N	26.211043	86.086938				RR	R	IND	IN-BR		1							Tirhut Railway Jaynagar Branch	RAILWAY	TIRHUTRAILWAYJAYNAGARBRANCH	26:12:40	86:05:13	45RVJ0878499377	2015-10-02T00:00:00.000Z	2015-10-02T00:00:00.000Z		1,2	
5	13362382	16881616	Bengal and North Western Railway Jaynagar Branch	V	26.211043	86.086938				RR	R	IND	IN-BR									Bengal and North Western Railway Jaynagar Branch	RAILWAY	BENGALANDNORTHWESTERNRAILWAYJAYNAGARBRANCH	26:12:40	86:05:13	45RVJ0878499377	2015-10-02T00:00:00.000Z	2015-10-02T00:00:00.000Z		1,2	
5	13364337	16883485	Madras & Southern Mahratta Railway Bangalore Harihar Branch	N	13.307661	76.260553				RR	R	IND	IN-KA		1							Madras & Southern Mahratta Railway Bangalore Harihar Branch		MADRASSOUTHERNMAHRATTARAILWAYBANGALOREHARIHARBRANCH	13:18:28	76:15:38	43PFQ3653671505	2015-10-02T00:00:00.000Z	2015-10-02T00:00:00.000Z		1,2	
5	13374012	16895219	East Indian Railway Loop Line	N	25.171549	86.114164				RR	R	IND	IN-BR		1							East Indian Railway Loop Line	RAILWAY	EASTINDIANRAILWAYLOOPLINE	25:10:18	86:06:51	45RVH1073384237	2015-10-06T00:00:00.000Z	2015-10-06T00:00:00.000Z		1,2	
5	13374583	16895813	Mysore Road	N	12.78642	76.244482				RD	R	IND	IN-KA		1							Mysore Road		MYSOREROAD	12:47:11	76:14:40	43PFQ3507713842	2015-10-06T00:00:00.000Z	2015-10-06T00:00:00.000Z		1,2	
5	13377702	16899013	Mysore Railway Arsikere Section	N	12.334963	76.641932				RR	R	IND	IN-KA		1							Mysore Railway Arsikere Section		MYSORERAILWAYARSIKERESECTION	12:20:06	76:38:31	43PFP7853864140	2015-10-06T00:00:00.000Z	2015-10-06T00:00:00.000Z		1,2	
5	13377741	16899052	Mysore Railway Nanjangūd Section	N	12.26407	76.6344				RR	R	IND	IN-KA		1							Mysore Railway Nanjangud Section		MYSORERAILWAYNANJANGUDSECTION	12:15:51	76:38:04	43PFP7776656293	2015-10-06T00:00:00.000Z	2015-10-06T00:00:00.000Z		1,2	
5	13379063	16900416	Tirhut Railway Samāstipur Rusera Khagaria Extension	N	25.505721	86.444425				RR	R	IND	IN-BR		1							Tirhut Railway Samastipur Rusera Khagaria Extension	RAILWAY	TIRHUTRAILWAYSAMASTIPURRUSERAKHAGARIAEXTENSION	25:30:21	86:26:40	45RVJ4416821064	2015-10-06T00:00:00.000Z	2015-10-06T00:00:00.000Z		1,2	
5	13379063	16900419	Bengal and North Western Railway Samāstipur Rusera Khagaria Extension	V	25.505721	86.444425				RR	R	IND	IN-BR									Bengal and North Western Railway Samastipur Rusera Khagaria Extension	RAILWAY	BENGALANDNORTHWESTERNRAILWAYSAMASTIPURRUSERAKHAGARIAEXTENSION	25:30:21	86:26:40	45RVJ4416821064	2015-10-06T00:00:00.000Z	2015-10-06T00:00:00.000Z		1,2	
5	13379442	16900822	East Indian Railway Monghyr Branch	N	25.321835	86.495059				RR	R	IND	IN-BR		1							East Indian Railway Monghyr Branch	RAILWAY	EASTINDIANRAILWAYMONGHYRBRANCH	25:19:19	86:29:42	45RVJ4918000681	2015-10-06T00:00:00.000Z	2015-10-06T00:00:00.000Z		1,2	
5	13380406	16901837	Mysore Railways Mysore Chāmrājnagar Section	N	11.933329	76.936449				RR	R	IND	IN-KA		1							Mysore Railways Mysore Chamrajnagar Section		MYSORERAILWAYSMYSORECHAMRAJNAGARSECTION	11:56:00	76:56:11	43PGP1088919918	2015-10-06T00:00:00.000Z	2015-10-06T00:00:00.000Z		1,2	
5	13383659	16905361	Tirhut Railway Baijnāthpur Branch	N	25.880621	86.595104				RR	R	IND	IN-BR		1							Tirhut Railway Baijnathpur Branch	RAILWAY	TIRHUTRAILWAYBAIJNATHPURBRANCH	25:52:50	86:35:42	45RVJ5943862526	2015-10-07T00:00:00.000Z	2015-10-07T00:00:00.000Z		1,2	
5	13383659	16905459	Bengal and North Western Railway Baijnāthpur Branch	V	25.880621	86.595104				RR	R	IND	IN-BR									Bengal and North Western Railway Baijnathpur Branch	RAILWAY	BENGALANDNORTHWESTERNRAILWAYBAIJNATHPURBRANCH	25:52:50	86:35:42	45RVJ5943862526	2015-10-07T00:00:00.000Z	2015-10-07T00:00:00.000Z		1,2	
5	13384300	16906063	Tirhut Railway Bhaptiāhi Mansi Branch	N	25.510028	86.565292				RR	R	IND	IN-BR		1							Tirhut Railway Bhaptiahi Mansi Branch	RAILWAY	TIRHUTRAILWAYBHAPTIAHIMANSIBRANCH	25:30:36	86:33:55	45RVJ5631621496	2015-10-07T00:00:00.000Z	2015-10-07T00:00:00.000Z		1,2	
5	13384300	16906089	Bengal and North Western Railway Bhaptiāhi Mansi Branch	V	25.510028	86.565292				RR	R	IND	IN-BR									Bengal and North Western Railway Bhaptiahi Mansi Branch	RAILWAY	BENGALANDNORTHWESTERNRAILWAYBHAPTIAHIMANSIBRANCH	25:30:36	86:33:55	45RVJ5631621496	2015-10-07T00:00:00.000Z	2015-10-07T00:00:00.000Z		1,2	
5	13389847	16913692	Madras and Southern Mahratta Railway Dhone Kurnool Branch	N	15.393836	77.87278				RR	R	IND	IN-AP		1							Madras and Southern Mahratta Railway Dhone Kurnool Branch		MADRASANDSOUTHERNMAHRATTARAILWAYDHONEKURNOOLBRANCH	15:23:38	77:52:22	43PHT0838503940	2015-10-07T00:00:00.000Z	2015-10-07T00:00:00.000Z		1,2	
5	13392135	16918376	Eastern Bengal Railway Murlīganj Branch	N	25.890058	86.995054				RR	R	IND	IN-BR		1							Eastern Bengal Railway Murliganj Branch	BRANCH	EASTERNBENGALRAILWAYMURLIGANJBRANCH	25:53:24	86:59:42	45RVJ9950563509	2015-10-08T00:00:00.000Z	2015-10-08T00:00:00.000Z		1,2	
5	13393868	16920257	Eastern Bengal Railway	V	25.731609	86.990494				RR	R	IND	IN-BR									Eastern Bengal Railway	RAILWAY	EASTERNBENGALRAILWAY	25:43:54	86:59:26	45RVJ9904745962	2015-10-08T00:00:00.000Z	2015-10-08T00:00:00.000Z		1,2	
5	13393868	16920253	Eastern Bengal Railway Bihārīganj Branch	N	25.731609	86.990494				RR	R	IND	IN-BR		1							Eastern Bengal Railway Bihariganj Branch	RAILWAY	EASTERNBENGALRAILWAYBIHARIGANJBRANCH	25:43:54	86:59:26	45RVJ9904745962	2015-10-08T00:00:00.000Z	2015-10-08T00:00:00.000Z		1,2	
5	13409080	16941715	Godhra Lūnavāda Railway	N	23.000094	73.622749				RR	R	IND	IN-GJ		1						Railway	Godhra Lunavada Railway	RAILWAY	GODHRALUNAVADARAILWAY	23:00:00	73:37:22	43QCF5884844193	2015-10-14T00:00:00.000Z	2015-10-14T00:00:00.000Z		1,2	
5	13419523	16954734	North Western Railway Pathānkot Branch	N	31.631935	74.896696				RR	R	IND	IN-PB		1							North Western Railway Pathankot Branch	BRANCH	NORTHWESTERNRAILWAYPATHANKOTBRANCH	31:37:55	74:53:48	43RDQ9020499644	2015-10-19T00:00:00.000Z	2015-10-19T00:00:00.000Z		1,2	
5	13419653	16954864	North Western Railway Verka Jassar Branch	N	31.677269	74.941052				RR	R	IND	IN-PB		1							North Western Railway Verka Jassar Branch	BRANCH	NORTHWESTERNRAILWAYVERKAJASSARBRANCH	31:40:38	74:56:28	43RDR9441304666	2015-10-19T00:00:00.000Z	2015-10-19T00:00:00.000Z		1,2	
5	13449423	16994091	Vengurla Road	N	15.867762	74.496331				RD	R	IND	IN-KA		1							Vengurla Road		VENGURLAROAD	15:52:04	74:29:47	43PDT4607654373	2015-10-27T00:00:00.000Z	2015-10-27T00:00:00.000Z		1,2	
5	13449422	16994090	Karwār Road	N	15.804841	74.483757				RD	R	IND	IN-KA		1							Karwar Road		KARWARROAD	15:48:17	74:29:02	43PDT4471247416	2015-10-27T00:00:00.000Z	2015-10-27T00:00:00.000Z		1,2	
5	13472239	17029826	Madras and Southern Mahratta Railway Rāmanmale Branch	N	15.134222	76.426706				RR	R	IND	IN-KA		1							Madras and Southern Mahratta Railway Ramanmale Branch		MADRASANDSOUTHERNMAHRATTARAILWAYRAMANMALEBRANCH	15:08:03	76:25:36	43PFS5329973670	2015-11-05T00:00:00.000Z	2015-11-05T00:00:00.000Z		1,2	
5	13475829	17036506	Madras & Southern Mahratta Railway Poona Branch	N	15.500051	74.467204				RR	R	IND	IN-KA		1							Madras & Southern Mahratta Railway Poona Branch	BRANCH	MADRASSOUTHERNMAHRATTARAILWAYPOONABRANCH	15:30:00	74:28:02	43PDT4285513706	2015-11-09T00:00:00.000Z	2015-11-09T00:00:00.000Z		1,2	
5	13475883	17036582	Poona Road	N	15.867462	74.511701				RD	R	IND	IN-KA		1							Poona Road	ROAD	POONAROAD	15:52:03	74:30:42	43PDT4772154336	2015-11-09T00:00:00.000Z	2015-11-16T00:00:00.000Z		1,2	
5	13476735	17037707	Poona-bangalore Road	N	15.59687	74.778242				RD	R	IND	IN-KA		1							Poona-bangalore Road	ROAD	POONABANGALOREROAD	15:35:49	74:46:42	43PDT7622724357	2015-11-09T00:00:00.000Z	2015-11-16T00:00:00.000Z		1,2	
5	13475899	17036598	Dhārwār Road	N	15.844509	74.521668				RD	R	IND	IN-KA		1							Dharwar Road	ROAD	DHARWARROAD	15:50:40	74:31:18	43PDT4878351794	2015-11-09T00:00:00.000Z	2015-11-16T00:00:00.000Z		1,2	
5	13476028	17036772	Kalādgi Road	V	15.862948	74.524866				RD	R	IND	IN-KA									Kaladgi Road	ROAD	KALADGIROAD	15:51:47	74:31:30	43PDT4913053833	2015-11-09T00:00:00.000Z	2015-11-16T00:00:00.000Z		1,2	
5	13476028	17036771	Vengurla-Kalādgi Road	N	15.862948	74.524866				RD	R	IND	IN-KA		1							Vengurla-Kaladgi Road	ROAD	VENGURLAKALADGIROAD	15:51:47	74:31:30	43PDT4913053833	2015-11-09T00:00:00.000Z	2015-11-16T00:00:00.000Z		1,2	
5	13482176	17044922	East Indian Railway	N	24.807638	84.999628				RR	R	IND	IN-BR		1							East Indian Railway	RAILWAY	EASTINDIANRAILWAY	24:48:27	84:59:59	45RTH9780345129	2015-11-10T00:00:00.000Z	2015-11-10T00:00:00.000Z		1,2	
5	13482176	17045234	Patna Gaya Branch	V	24.807638	84.999628				RR	R	IND	IN-BR									Patna Gaya Branch	BRANCH	PATNAGAYABRANCH	24:48:27	84:59:59	45RTH9780345129	2015-11-10T00:00:00.000Z	2015-11-10T00:00:00.000Z		1,2	
5	13494298	17063293	Darjeeling Himalayan Railway	N	26.101118	87.956088				RR	R	IND	IN-BR		1							Darjeeling Himalayan Railway	RAILWAY	DARJEELINGHIMALAYANRAILWAY	26:06:04	87:57:22	45RWJ9560487233	2015-11-17T00:00:00.000Z	2015-11-17T00:00:00.000Z		1,2	
5	13500096	17070941	East India Railway Loop Line	N	25.209667	87.135768				RR	R	IND	IN-BR		1							East India Railway Loop Line	LOOPLINE	EASTINDIARAILWAYLOOPLINE	25:12:35	87:08:09	45RWH1367788171	2015-11-18T00:00:00.000Z	2015-11-18T00:00:00.000Z		1,2	
5	13508567	17084172	Eastern Indian Railway Digha Ghāt Branch	N	25.599904	85.128032				RR	R	IND	IN-BR		1							Eastern Indian Railway Digha Ghat Branch		EASTERNINDIANRAILWAYDIGHAGHATBRANCH	25:36:00	85:07:41	45RUJ1200732704	2015-11-20T00:00:00.000Z	2015-11-20T00:00:00.000Z		1,2	
5	13508864	17084470	Bendal and North-Western Railway Tirhut Section Hājīpat-Mussffarpur Branch	N	25.709117	85.220209				RR	R	IND	IN-BR		1							Bendal and North-Western Railway Tirhut Section Hajipat-Mussffarpur Branch		BENDALANDNORTHWESTERNRAILWAYTIRHUTSECTIONHAJIPATMUSSFFARPURBRANCH	25:42:33	85:13:13	45RUJ2142844674	2015-11-20T00:00:00.000Z	2015-11-20T00:00:00.000Z		1,2	
5	13508542	17084147	Bengal and North-Western Railway Dīgha Ghāt Branch	N	25.666953	85.107156				RR	R	IND	IN-BR		1							Bengal and North-Western Railway Digha Ghat Branch		BENGALANDNORTHWESTERNRAILWAYDIGHAGHATBRANCH	25:40:01	85:06:26	45RUJ1001640161	2015-11-20T00:00:00.000Z	2015-11-20T00:00:00.000Z		1,2	
5	13508839	17084445	Bengal and North-Western Railroad Tirhut Section	N	25.708943	85.220681				RR	R	IND	IN-BR		1							Bengal and North-Western Railroad Tirhut Section		BENGALANDNORTHWESTERNRAILROADTIRHUTSECTION	25:42:32	85:13:14	45RUJ2147544655	2015-11-20T00:00:00.000Z	2015-11-20T00:00:00.000Z		1,2	
5	13511446	17088141	East Indian Railway	N	25.000484	87.741864				RR	R	IND	IN-JH		1							East Indian Railway	RAILWAY	EASTINDIANRAILWAY	25:00:02	87:44:31	45RWH7486265206	2015-11-23T00:00:00.000Z	2015-11-23T00:00:00.000Z		1,2	
5	13510981	17087687	Eastern Bengal Railway Kosi Branch	N	25.552994	87.566233				RR	R	IND	IN-BR		1							Eastern Bengal Railway Kosi Branch	BRANCH	EASTERNBENGALRAILWAYKOSIBRANCH	25:33:11	87:33:58	45RWJ5688126304	2015-11-23T00:00:00.000Z	2015-11-23T00:00:00.000Z		1,2	
5	13514513	17092399	East Indian Railway Bhāgalpur Bausi Branch	N	24.80345	87.027139				RR	R	IND	IN-BR		1							East Indian Railway Bhagalpur Bausi Branch	BRANCH	EASTINDIANRAILWAYBHAGALPURBAUSIBRANCH	24:48:12	87:01:38	45RWH0274343185	2015-11-24T00:00:00.000Z	2015-11-24T00:00:00.000Z		1,2	
5	13514393	17092299	Eastern Bengal Railway Godāgari Extension	N	25.28154	87.999953				RR	R	IND	IN-WB		1							Eastern Bengal Railway Godagari Extension	EXTENSION	EASTERNBENGALRAILWAYGODAGARIEXTENSION	25:16:54	88:00:00	45RXH0067796498	2015-11-24T00:00:00.000Z	2015-11-24T00:00:00.000Z		1,2	
5	13513774	17091433	Eastern Bengal Railway Kishanganj Branch	N	25.649943	87.914581				RR	R	IND	IN-BR		1							Eastern Bengal Railway Kishanganj Branch	BRANCH	EASTERNBENGALRAILWAYKISHANGANJBRANCH	25:39:00	87:54:52	45RWJ9180137235	2015-11-24T00:00:00.000Z	2015-11-24T00:00:00.000Z		1,2	
5	13517255	17095336	East Indian Railway	N	24.631935	87.999938				RR	R	IND	IN-WB		1							East Indian Railway	RAILWAY	EASTINDIANRAILWAY	24:37:55	88:00:00	45RXH0120524562	2015-11-24T00:00:00.000Z	2015-11-24T00:00:00.000Z		1,2	
5	13516308	17094391	Fatwa Islāmpur Light Railway	N	25.136807	85.217095				RR	R	IND	IN-BR		1							Fatwa Islampur Light Railway		FATWAISLAMPURLIGHTRAILWAY	25:08:13	85:13:02	45RUH2026981284	2015-11-24T00:00:00.000Z	2015-11-24T00:00:00.000Z		1,2	
5	13517255	17095510	Bāndel - Barharwā Branch	V	24.631935	87.999938				RR	R	IND	IN-WB									Bandel - Barharwa Branch	BRANCH	BANDELBARHARWABRANCH	24:37:55	88:00:00	45RXH0120524562	2015-11-24T00:00:00.000Z	2015-11-24T00:00:00.000Z		1,2	
5	13517797	17095903	East Indian Railway Azimganj Branch	N	24.295332	87.838651				RR	R	IND	IN-WB		1							East Indian Railway Azimganj Branch	BRANCH	EASTINDIANRAILWAYAZIMGANJBRANCH	24:17:43	87:50:19	45RWG8510687181	2015-11-24T00:00:00.000Z	2015-11-24T00:00:00.000Z		1,2	
5	13552911	17153312	Pāohora Jāmner Railway	N	20.749765	75.757507				RR	R	IND	IN-MH		1						Railway	Paohora Jamner Railway	RAILWAY	PAOHORAJAMNERRAILWAY	20:44:59	75:45:27	43QEC7885994639	2015-12-18T00:00:00.000Z	2015-12-18T00:00:00.000Z		1,2	
5	13562867	17171516	Barmdeo Extension	N	29.098467	80.1315				RR	R	IND	IN-UT		1						Extension	Barmdeo Extension	EXTENSION	BARMDEOEXTENSION	29:05:54	80:07:53	44RMT1548719207	2016-01-04T00:00:00.000Z	2016-01-04T00:00:00.000Z		1,2,3	
5	13808311	17626176	Mysore Railway Bangalore Section	N	12.917647	77.483199				RR	R	IND	IN-KA		1							Mysore Railway Bangalore Section		MYSORERAILWAYBANGALORESECTION	12:55:04	77:29:00	43PGQ6944629335	2016-08-17T00:00:00.000Z	2016-08-17T00:00:00.000Z		1,2	
5	13811093	17629765	Nizam’s Guaranteed State Railways Secunderābād Gadwāl Branch	N	15.836613	78.033005				RR	R	IND	IN-AP		1							Nizam's Guaranteed State Railways Secunderabad Gadwal Branch		NIZAMSGUARANTEEDSTATERAILWAYSSECUNDERABADGADWALBRANCH	15:50:12	78:01:59	44PJC8217853110	2016-08-18T00:00:00.000Z	2016-08-18T00:00:00.000Z		1,2,3	
5	13851081	17706822	Bellary-Cuddapah Road	N	14.501547	78.79136				RD	R	IND	IN-AP		1							Bellary-Cuddapah Road		BELLARYCUDDAPAHROAD	14:30:06	78:47:29	44PKB6196204345	2016-09-22T00:00:00.000Z	2016-09-22T00:00:00.000Z		1,2	
5	13852081	17708213	Bellary - Madras Road	N	13.820793	78.249747				RD	R	IND	IN-AP		1							Bellary - Madras Road		BELLARYMADRASROAD	13:49:15	78:14:59	44PKA0266729613	2016-09-22T00:00:00.000Z	2016-09-22T00:00:00.000Z		1,2	
5	13850883	17706504	Kurnook-Madras Road	N	14.499886	78.793389				RD	R	IND	IN-AP		1							Kurnook-Madras Road		KURNOOKMADRASROAD	14:30:00	78:47:36	44PKB6217904159	2016-09-22T00:00:00.000Z	2016-09-22T00:00:00.000Z		1,2	
5	13851242	17707003	Madras and Southern Mahratta Railway North-West Line	N	14.405395	78.998995				RR	R	IND	IN-AP		1							Madras and Southern Mahratta Railway North-West Line		MADRASANDSOUTHERNMAHRATTARAILWAYNORTHWESTLINE	14:24:19	78:59:56	44PKA8425593499	2016-09-22T00:00:00.000Z	2016-09-22T00:00:00.000Z		1,2	
5	13853483	17710099	Kolār District Railway	N	13.250067	78.149079				RR	R	IND	IN-KA		1							Kolar District Railway		KOLARDISTRICTRAILWAY	13:15:00	78:08:57	44PJV9104066553	2016-09-22T00:00:00.000Z	2016-09-22T00:00:00.000Z		1,2	
5	13855580	17712771	Bangalor-Madras Road	N	13.130835	78.158762				RD	R	IND	IN-KA		1							Bangalor-Madras Road		BANGALORMADRASROAD	13:07:51	78:09:32	44PJV9194053341	2016-09-22T00:00:00.000Z	2016-09-22T00:00:00.000Z		1,2	
5	13861003	17724410	Bangalore-Cuddapah Road	N	13.500047	78.329203				RD	R	IND	IN-KA		1							Bangalore-Cuddapah Road		BANGALORECUDDAPAHROAD	13:30:00	78:19:45	44PKV1087294009	2016-09-26T00:00:00.000Z	2016-09-26T00:00:00.000Z		1,2	
5	13860721	17724128	Bellary-Madras Road	N	13.629977	78.485135				RD	R	IND	IN-AP		1							Bellary-Madras Road		BELLARYMADRASROAD	13:37:48	78:29:06	44PKA2791108212	2016-09-26T00:00:00.000Z	2016-09-26T00:00:00.000Z		1,2	
5	13866614	17734704	Bellary-Madras Road	N	13.201182	78.743222				RD	R	IND	IN-AP		1							Bellary-Madras Road		BELLARYMADRASROAD	13:12:04	78:44:36	44PKV5541460484	2016-09-29T00:00:00.000Z	2016-09-29T00:00:00.000Z		1,2	
5	13866529	17734619	Bangalore-Madras Road	N	13.201207	78.499972				RD	R	IND	IN-KA		1							Bangalore-Madras Road		BANGALOREMADRASROAD	13:12:04	78:30:00	44PKV2903660737	2016-09-29T00:00:00.000Z	2016-09-29T00:00:00.000Z		1,2	
5	13890427	17783288	South Indian Railway Tirupattūr - Krishnagiri Branch	N	12.522331	78.222914				RR	R	IND	IN-TN		1							South Indian Railway Tirupattur - Krishnagiri Branch		SOUTHINDIANRAILWAYTIRUPATTURKRISHNAGIRIBRANCH	12:31:20	78:13:22	44PJU9817685900	2016-10-17T00:00:00.000Z	2016-10-17T00:00:00.000Z		1,2	
5	13889974	17782802	Bowringpet Kolār Railway	N	12.985134	78.179129				RR	R	IND	IN-KA		1							Bowringpet Kolar Railway		BOWRINGPETKOLARRAILWAY	12:59:06	78:10:45	44PJV9397137186	2016-10-17T00:00:00.000Z	2016-10-17T00:00:00.000Z		1,2	
5	13889974	17782927	Kolār District Railway	V	12.985134	78.179129				RR	R	IND	IN-KA									Kolar District Railway		KOLARDISTRICTRAILWAY	12:59:06	78:10:45	44PJV9397137186	2016-10-17T00:00:00.000Z	2016-10-17T00:00:00.000Z		1,2	
5	13890095	17782923	Richards Road	N	12.880777	78.206183				RD	R	IND	IN-KA		1							Richards Road		RICHARDSROAD	12:52:51	78:12:22	44PJV9678225600	2016-10-17T00:00:00.000Z	2016-10-17T00:00:00.000Z		1,2	
5	13889992	17782820	Kolār Gold Fields Railway	N	12.981757	78.182887				RR	R	IND	IN-KA		1							Kolar Gold Fields Railway		KOLARGOLDFIELDSRAILWAY	12:58:54	78:10:58	44PJV9437536807	2016-10-17T00:00:00.000Z	2016-10-17T00:00:00.000Z		1,2	
5	13891526	17785418	South Indian Railway Morappūr Hosūr Branch	N	12.249934	78.100412				RR	R	IND	IN-TN		1							South Indian Railway Morappur Hosur Branch		SOUTHINDIANRAILWAYMORAPPURHOSURBRANCH	12:15:00	78:06:01	44PJU8452455886	2016-10-17T00:00:00.000Z	2016-10-17T00:00:00.000Z		1,2	
5	13895907	17794072	Hancock Road	N	12.907896	78.277949				RD	R	IND	IN-KA		1							Hancock Road		HANCOCKROAD	12:54:28	78:16:41	44PKV0460828519	2016-10-20T00:00:00.000Z	2016-10-20T00:00:00.000Z		1,2	
5	13896300	17794469	Smith Road	N	12.924691	78.261451				RD	R	IND	IN-KA		1							Smith Road		SMITHROAD	12:55:29	78:15:41	44PKV0283630397	2016-10-20T00:00:00.000Z	2016-10-20T00:00:00.000Z		1,2	
5	13897569	17796237	Southern Indian Railway Morappūr-Hosūr Branch	N	12.12297	78.392859				RR	R	IND	IN-TN		1							Southern Indian Railway Morappur-Hosur Branch		SOUTHERNINDIANRAILWAYMORAPPURHOSURBRANCH	12:07:23	78:23:34	44PKU1622841508	2016-10-20T00:00:00.000Z	2016-10-20T00:00:00.000Z		1,2	
5	13897972	17796693	Madras and Southern Mahratta Railway	N	12.563489	78.576432				RR	R	IND	IN-TN		1							Madras and Southern Mahratta Railway		MADRASANDSOUTHERNMAHRATTARAILWAY	12:33:49	78:34:35	44PKU3666290076	2016-10-20T00:00:00.000Z	2016-10-20T00:00:00.000Z		1,2	
5	13897972	17796934	Bangalore Branch	V	12.563489	78.576432				RR	R	IND	IN-TN									Bangalore Branch		BANGALOREBRANCH	12:33:49	78:34:35	44PKU3666290076	2016-10-20T00:00:00.000Z	2016-10-20T00:00:00.000Z		1,2	
5	13925630	17850328	Madras - Kurnool Road	N	14.000106	78.746733				RD	R	IND	IN-AP		1							Madras - Kurnool Road		MADRASKURNOOLROAD	14:00:00	78:44:48	44PKA5661248896	2016-11-15T00:00:00.000Z	2016-11-15T00:00:00.000Z		1,2	
5	13957070	17907569	Madras and Southern Mahratta Railway	N	13.451595	79.10864				RR	R	IND	IN-AP		1							Madras and Southern Mahratta Railway		MADRASANDSOUTHERNMAHRATTARAILWAY	13:27:06	79:06:31	44PKV9524287863	2016-12-12T00:00:00.000Z	2016-12-12T00:00:00.000Z		1,2	
5	13957070	17908001	Gūdūr Branch	V	13.451595	79.10864				RR	R	IND	IN-AP									Gudur Branch		GUDURBRANCH	13:27:06	79:06:31	44PKV9524287863	2016-12-12T00:00:00.000Z	2016-12-12T00:00:00.000Z		1,2	
5	13960091	17912137	Madras and Southern Mahratta Railway	N	13.644095	79.508811				RR	R	IND	IN-AP		1							Madras and Southern Mahratta Railway		MADRASANDSOUTHERNMAHRATTARAILWAY	13:38:39	79:30:32	44PLA3870408861	2016-12-13T00:00:00.000Z	2016-12-13T00:00:00.000Z		1,2	
5	13960091	17912206	Gundūr Branch	V	13.644095	79.508811				RR	R	IND	IN-AP									Gundur Branch		GUNDURBRANCH	13:38:39	79:30:32	44PLA3870408861	2016-12-13T00:00:00.000Z	2016-12-13T00:00:00.000Z		1,2	
5	13976287	17938986	Madras and Southern Mahratta Railway	N	12.92776	79.328022				RR	R	IND	IN-TN		1							Madras and Southern Mahratta Railway		MADRASANDSOUTHERNMAHRATTARAILWAY	12:55:40	79:19:41	44PLV1861329739	2016-12-20T00:00:00.000Z	2016-12-20T00:00:00.000Z		1,2	
5	13976287	17939148	Rānipet Branch	V	12.92776	79.328022				RR	R	IND	IN-TN									Ranipet Branch		RANIPETBRANCH	12:55:40	79:19:41	44PLV1861329739	2016-12-20T00:00:00.000Z	2016-12-20T00:00:00.000Z		1,2	
5	13983865	17953856	Arkonam Branch	V	12.69895	79.977042				RR	R	IND	IN-TN									Arkonam Branch		ARKONAMBRANCH	12:41:56	79:58:37	44PLV8893104062	2016-12-29T00:00:00.000Z	2016-12-29T00:00:00.000Z		1,2	
5	13983865	17953812	South Indian Railway	N	12.69895	79.977042				RR	R	IND	IN-TN		1							South Indian Railway		SOUTHINDIANRAILWAY	12:41:56	79:58:37	44PLV8893104062	2016-12-29T00:00:00.000Z	2016-12-29T00:00:00.000Z		1,2	
5	14017278	18012696	Nilgiri Railway	N	11.299943	76.934903				RR	R	IND	IN-TN		1							Nilgiri Railway		NILGIRIRAILWAY	11:18:00	76:56:06	43PGN1119749844	2017-01-19T00:00:00.000Z	2017-01-19T00:00:00.000Z		1,2	
5	14019823	18016472	Cochin State Forest Tramway	N	10.301591	76.322965				RR	R	IND	IN-KL		1							Cochin State Forest Tramway		COCHINSTATEFORESTTRAMWAY	10:18:06	76:19:23	43PFM4486739057	2017-01-19T00:00:00.000Z	2017-01-19T00:00:00.000Z		1,2	
5	14020073	18016991	South Indian Railway	V	10.000162	76.281707				RR	R	IND	IN-KL									South Indian Railway		SOUTHINDIANRAILWAY	10:00:01	76:16:54	43PFM4048005703	2017-01-19T00:00:00.000Z	2017-01-19T00:00:00.000Z		1,2	
5	14020073	18016857	Shoranūr Cochin Railway	N	10.000162	76.281707				RR	R	IND	IN-KL		1							Shoranur Cochin Railway		SHORANURCOCHINRAILWAY	10:00:01	76:16:54	43PFM4048005703	2017-01-19T00:00:00.000Z	2017-01-19T00:00:00.000Z		1,2	
5	14027353	18028968	Pālghāt Branch	N	10.774031	76.652898				RR	R	IND	IN-KL		1							Palghat Branch		PALGHATBRANCH	10:46:27	76:39:10	43PFM8072991482	2017-01-24T00:00:00.000Z	2017-01-24T00:00:00.000Z		1,2	
5	14048462	18061592	Kumalapāra Incline	N	10.382661	76.567738				RR	R	IND	IN-KL		1							Kumalapara Incline		KUMALAPARAINCLINE	10:22:58	76:34:04	43PFM7163248145	2017-01-30T00:00:00.000Z	2017-01-30T00:00:00.000Z		1,2	
5	14048458	18061588	Kavalai Incline	N	10.380006	76.514923				RR	R	IND	IN-KL		1							Kavalai Incline		KAVALAIINCLINE	10:22:48	76:30:54	43PFM6585047823	2017-01-30T00:00:00.000Z	2017-01-30T00:00:00.000Z		1,2	
5	14051726	18067215	Podanur Pollāchi Railway	N	10.654261	76.997836				RR	R	IND	IN-TN		1							Podanur Pollachi Railway		PODANURPOLLACHIRAILWAY	10:39:15	76:59:52	43PGM1854378456	2017-02-01T00:00:00.000Z	2017-02-01T00:00:00.000Z		1,2	
5	14051725	18067214	South Indian Railway Dindigul-Pollāchi Branch	N	10.653755	76.998694				RR	R	IND	IN-TN		1							South Indian Railway Dindigul-Pollachi Branch		SOUTHINDIANRAILWAYDINDIGULPOLLACHIBRANCH	10:39:14	76:59:55	43PGM1863778401	2017-02-01T00:00:00.000Z	2017-02-01T00:00:00.000Z		1,2	
5	14057117	18075361	Travancore	V	8.885634	76.59257				RR	R	IND	IN-KL									Travancore		TRAVANCORE	8:53:08	76:35:33	43PFK7512282584	2017-02-02T00:00:00.000Z	2017-02-02T00:00:00.000Z		1,2	
5	14057117	18075360	System Tinnevelly-Quilon Railway South Indian Rail	N	8.885634	76.59257				RR	R	IND	IN-KL		1							System Tinnevelly-Quilon Railway South Indian Rail		SYSTEMTINNEVELLYQUILONRAILWAYSOUTHINDIANRAIL	8:53:08	76:35:33	43PFK7512282584	2017-02-02T00:00:00.000Z	2017-02-02T00:00:00.000Z		1,2	
5	14116359	18178887	South Indian Railway Erode Branch	N	11.330213	77.732633				RR	R	IND	IN-TN		1							South Indian Railway Erode Branch		SOUTHINDIANRAILWAYERODEBRANCH	11:19:49	77:43:57	43PGN9829153890	2017-03-16T00:00:00.000Z	2017-03-16T00:00:00.000Z		1,2	
5	14193598	18304338	Kundale Valley Tramway	N	10.086355	77.061152				RR	R	IND	IN-KL		1							Kundale Valley Tramway		KUNDALEVALLEYTRAMWAY	10:05:11	77:03:40	43PGM2587915672	2017-05-08T00:00:00.000Z	2017-05-08T00:00:00.000Z		1,2	
5	14235880	18379106	South Indian Railway Cuddalore Vriddhāchalam Section	N	11.546484	79.318415				RR	R	IND	IN-TN		1							South Indian Railway Cuddalore Vriddhachalam Section		SOUTHINDIANRAILWAYCUDDALOREVRIDDHACHALAMSECTION	11:32:47	79:19:06	44PLT1662076944	2017-06-08T00:00:00.000Z	2017-06-08T00:00:00.000Z		1,2	
5	14243765	18391594	South Indian Railway Mannārgudi Extension	N	10.675455	79.454824				RR	R	IND	IN-TN		1							South Indian Railway Mannargudi Extension		SOUTHINDIANRAILWAYMANNARGUDIEXTENSION	10:40:32	79:27:17	44PLS3099880517	2017-06-16T00:00:00.000Z	2017-06-16T00:00:00.000Z		1,2	
5	14248175	18397855	South Indian Railway Vedāranniyam Extension	N	10.529055	79.631975				RR	R	IND	IN-TN		1							South Indian Railway Vedaranniyam Extension		SOUTHINDIANRAILWAYVEDARANNIYAMEXTENSION	10:31:45	79:37:55	44PLS5030664234	2017-06-20T00:00:00.000Z	2017-06-20T00:00:00.000Z		1,2	
5	14248592	18398304	South Indian Railway Nagore Branch	N	10.773296	79.15827				RR	R	IND	IN-TN		1							South Indian Railway Nagore Branch		SOUTHINDIANRAILWAYNAGOREBRANCH	10:46:24	79:09:30	44PKS9861891518	2017-06-20T00:00:00.000Z	2017-06-20T00:00:00.000Z		1,2	
5	14251234	18402259	Pillaiyārpatti Siding	V	10.73406	79.092875				RR	R	IND	IN-TN									Pillaiyarpatti Siding		PILLAIYARPATTISIDING	10:44:03	79:05:34	44PKS9143887221	2017-06-22T00:00:00.000Z	2017-06-22T00:00:00.000Z		1,2	
5	14251234	18402159	South Indian Railway	N	10.73406	79.092875				RR	R	IND	IN-TN		1							South Indian Railway		SOUTHINDIANRAILWAY	10:44:03	79:05:34	44PKS9143887221	2017-06-22T00:00:00.000Z	2017-06-22T00:00:00.000Z		1,2	
5	14254504	18406609	South Indian Railway	V	10.952993	79.657327				RR	R	IND	IN-TN									South Indian Railway		SOUTHINDIANRAILWAY	10:57:11	79:39:26	44PLT5328611109	2017-06-23T00:00:00.000Z	2017-06-23T00:00:00.000Z		1,2	
5	14254196	18406184	South Indian Railway Vedāranniyam Extension	N	10.350725	79.848121				RR	R	IND	IN-TN		1							South Indian Railway Vedaranniyam Extension		SOUTHINDIANRAILWAYVEDARANNIYAMEXTENSION	10:21:03	79:50:53	44PLS7388944418	2017-06-23T00:00:00.000Z	2017-06-23T00:00:00.000Z		1,2	
5	14254504	18406455	Peralam Kārikāl Railway	N	10.952993	79.657327				RR	R	IND	IN-TN		1							Peralam Karikal Railway		PERALAMKARIKALRAILWAY	10:57:11	79:39:26	44PLT5328611109	2017-06-23T00:00:00.000Z	2017-06-23T00:00:00.000Z		1,2	
5	14263196	18418867	East Indian Railway Bokāro Rāmgarh Extension	N	23.626048	85.46128				RR	R	IND	IN-JH		1							East Indian Railway Bokaro Ramgarh Extension		EASTINDIANRAILWAYBOKARORAMGARHEXTENSION	23:37:34	85:27:41	45QUG4303313671	2017-06-26T00:00:00.000Z	2017-06-26T00:00:00.000Z		1,2	
5	14263200	18418871	Bengal Nagpur Railway Heslā-Chāndil Branch	N	23.625676	85.461701				RR	R	IND	IN-JH		1							Bengal Nagpur Railway Hesla-Chandil Branch		BENGALNAGPURRAILWAYHESLACHANDILBRANCH	23:37:32	85:27:42	45QUG4307613629	2017-06-26T00:00:00.000Z	2017-06-26T00:00:00.000Z		1,2	
5	14267987	18423781	Manoharpur Light Railway	N	22.364722	85.191463				RR	R	IND	IN-JH		1							Manoharpur Light Railway		MANOHARPURLIGHTRAILWAY	22:21:53	85:11:29	45QUE1378074316	2017-06-26T00:00:00.000Z	2017-06-26T00:00:00.000Z		1,2	
5	14278731	18440165	East Indian Railway Central Indian Coal Fields	N	23.942056	84.145013				RR	R	IND	IN-JH		1							East Indian Railway Central Indian Coal Fields		EASTINDIANRAILWAYCENTRALINDIANCOALFIELDS	23:56:31	84:08:42	45QTG0940550751	2017-06-30T00:00:00.000Z	2017-06-30T00:00:00.000Z		1,2	
5	14282155	18444238	Bengal Nagpur Railway Puruliā-Rānchī Branch	N	23.445338	84.690116				RR	R	IND	IN-JH		1							Bengal Nagpur Railway Purulia-Ranchi Branch		BENGALNAGPURRAILWAYPURULIARANCHIBRANCH	23:26:43	84:41:24	45QTF6401994713	2017-07-03T00:00:00.000Z	2017-07-03T00:00:00.000Z		1,2	
5	14280784	18442793	Rachāng Road	N	23.435852	84.251339				RD	R	IND	IN-JH		1							Rachang Road		RACHANGROAD	23:26:09	84:15:05	45QTF1915194450	2017-07-03T00:00:00.000Z	2017-07-03T00:00:00.000Z		1,2	
5	14306305	18481740	Tinnevelly-Tiruchchendūr Railway	N	8.726395	77.705874				RR	R	IND	IN-TN		1							Tinnevelly-Tiruchchendur Railway		TINNEVELLYTIRUCHCHENDURRAILWAY	8:43:35	77:42:21	43PGK9774065671	2017-07-25T00:00:00.000Z	2017-07-25T00:00:00.000Z		1,2	
5	14307296	18482939	Kulasekarapatnam-Tisaiyanvilai Light Railway	N	8.336031	77.864597				RR	R	IND	IN-TN		1							Kulasekarapatnam-Tisaiyanvilai Light Railway		KULASEKARAPATNAMTISAIYANVILAILIGHTRAILWAY	8:20:10	77:51:53	43PHK1553922591	2017-07-25T00:00:00.000Z	2017-07-25T00:00:00.000Z		1,2	
5	14306316	18481751	South Indian Railway Tinnevelly Branch	N	8.743808	77.708778				RR	R	IND	IN-TN		1							South Indian Railway Tinnevelly Branch		SOUTHINDIANRAILWAYTINNEVELLYBRANCH	8:44:38	77:42:32	43PGK9804667600	2017-07-25T00:00:00.000Z	2017-07-25T00:00:00.000Z		1,2	
5	14313711	18490879	South Indian Railway Villupuram Trichinopoly Chord	N	10.792616	78.715191				RR	R	IND	IN-TN		1							South Indian Railway Villupuram Trichinopoly Chord		SOUTHINDIANRAILWAYVILLUPURAMTRICHINOPOLYCHORD	10:47:33	78:42:55	44PKS5016493982	2017-07-26T00:00:00.000Z	2017-07-26T00:00:00.000Z		1,2	
5	14310921	18487113	South Indian Railway Madura Bodinayakkanūr Branch	N	10.022061	77.347254				RR	R	IND	IN-TN		1							South Indian Railway Madura Bodinayakkanur Branch		SOUTHINDIANRAILWAYMADURABODINAYAKKANURBRANCH	10:01:19	77:20:50	43PGM5729908769	2017-07-26T00:00:00.000Z	2017-07-26T00:00:00.000Z		1,2	
5	14315682	18493037	South Indian Railway	N	10.193606	78.968218				RR	R	IND	IN-TN		1							South Indian Railway		SOUTHINDIANRAILWAY	10:11:37	78:58:06	44PKS7741527517	2017-07-26T00:00:00.000Z	2017-07-26T00:00:00.000Z		1,2	
5	14319955	18497679	South Indian Railway Madras Dhanushkodi Section	N	9.588426	78.499919				RR	R	IND	IN-TN		1							South Indian Railway Madras Dhanushkodi Section		SOUTHINDIANRAILWAYMADRASDHANUSHKODISECTION	9:35:18	78:30:00	44PKR2558260906	2017-07-27T00:00:00.000Z	2017-07-27T00:00:00.000Z		1,2	
5	14319961	18497685	South Indian Railway Trichinopoly Mānāmadurai Chord Line	N	9.693362	78.449508				RR	R	IND	IN-TN		1							South Indian Railway Trichinopoly Manamadurai Chord Line		SOUTHINDIANRAILWAYTRICHINOPOLYMANAMADURAICHORDLINE	9:41:36	78:26:58	44PKR2013272559	2017-07-27T00:00:00.000Z	2017-07-27T00:00:00.000Z		1,2	
5	14324910	18504789	Kulasekharapatnam-Tisaiyanvilai Light Railway	N	8.500692	78.115512				RR	R	IND	IN-TN		1							Kulasekharapatnam-Tisaiyanvilai Light Railway		KULASEKHARAPATNAMTISAIYANVILAILIGHTRAILWAY	8:30:02	78:06:56	44PJQ8240240833	2017-08-01T00:00:00.000Z	2017-08-01T00:00:00.000Z		1,2	
5	14324912	18504791	South Indian Railway System Tinnevelly-Tiruchchendūr Railway	N	8.50048	78.117851				RR	R	IND	IN-TN		1							South Indian Railway System Tinnevelly-Tiruchchendur Railway		SOUTHINDIANRAILWAYSYSTEMTINNEVELLYTIRUCHCHENDURRAILWAY	8:30:02	78:07:04	44PJQ8266040808	2017-08-01T00:00:00.000Z	2017-08-01T00:00:00.000Z		1,2	
5	14328637	18509288	South Indian Railway Māyavaram Arantāngi Branch	N	11.000568	79.653918				RR	R	IND	IN-TN		1							South Indian Railway Mayavaram Arantangi Branch		SOUTHINDIANRAILWAYMAYAVARAMARANTANGIBRANCH	11:00:02	79:39:14	44PLT5293616372	2017-08-01T00:00:00.000Z	2017-08-01T00:00:00.000Z		1,2	
5	14327821	18508232	South Indian Railway Pondicherry Branch	N	11.936539	79.499963				RR	R	IND	IN-TN		1							South Indian Railway Pondicherry Branch		SOUTHINDIANRAILWAYPONDICHERRYBRANCH	11:56:12	79:30:00	44PLU3665219979	2017-08-01T00:00:00.000Z	2017-08-01T00:00:00.000Z		1,2	
5	14328761	18509412	South Indian Railway Tranquebar Branch	N	11.091064	79.627949				RR	R	IND	IN-TN		1							South Indian Railway Tranquebar Branch		SOUTHINDIANRAILWAYTRANQUEBARBRANCH	11:05:28	79:37:41	44PLT5014526394	2017-08-01T00:00:00.000Z	2017-08-01T00:00:00.000Z		1,2	
5	14327512	18507912	South Indian Railway Villupuram Trichinopoly Railway	N	11.749991	79.368312				RR	R	IND	IN-TN		1							South Indian Railway Villupuram Trichinopoly Railway		SOUTHINDIANRAILWAYVILLUPURAMTRICHINOPOLYRAILWAY	11:45:00	79:22:06	44PLT2219299424	2017-08-01T00:00:00.000Z	2017-08-01T00:00:00.000Z		1,2	
5	14327339	18508020	South Indian Railway Katpādi Branch	V	11.950766	79.499918				RR	R	IND	IN-TN									South Indian Railway Katpadi Branch		SOUTHINDIANRAILWAYKATPADIBRANCH	11:57:03	79:30:00	44PLU3665621552	2017-08-01T00:00:00.000Z	2017-08-01T00:00:00.000Z		1,2	
5	14327339	18507739	South Indian Railway Villupuram Kātpādi Section	N	11.950766	79.499918				RR	R	IND	IN-TN		1							South Indian Railway Villupuram Katpadi Section		SOUTHINDIANRAILWAYVILLUPURAMKATPADISECTION	11:57:03	79:30:00	44PLU3665621552	2017-08-01T00:00:00.000Z	2017-08-01T00:00:00.000Z		1,2	
5	14331611	18513316	South Indian Railway Mannārgudi Extension	N	10.675455	79.454824				RR	R	IND	IN-TN		1							South Indian Railway Mannargudi Extension		SOUTHINDIANRAILWAYMANNARGUDIEXTENSION	10:40:32	79:27:17	44PLS3099880517	2017-08-02T00:00:00.000Z	2017-08-02T00:00:00.000Z		1,2	
5	14331992	18514138	South Indian Railway Salem Mettūr Dam Branch	N	11.697065	78.095433				RR	R	IND	IN-TN		1							South Indian Railway Salem Mettur Dam Branch		SOUTHINDIANRAILWAYSALEMMETTURDAMBRANCH	11:41:49	78:05:44	44PJT8333794684	2017-08-03T00:00:00.000Z	2017-08-03T00:00:00.000Z		1,2	
5	14332164	18514310	South Indian Railway Salem-Vriddhāchalam Section	N	11.663843	78.116464				RR	R	IND	IN-TN		1							South Indian Railway Salem-Vriddhachalam Section		SOUTHINDIANRAILWAYSALEMVRIDDHACHALAMSECTION	11:39:50	78:06:59	44PJT8559590983	2017-08-03T00:00:00.000Z	2017-08-03T00:00:00.000Z		1,2	
5	14349724	18535290	Bengal Nagpur Railway Main Line	N	22.248039	85.001341				RR	R	IND	IN-OR		1							Bengal Nagpur Railway Main Line		BENGALNAGPURRAILWAYMAINLINE	22:14:53	85:00:05	45QTE9402761642	2017-08-10T00:00:00.000Z	2017-08-10T00:00:00.000Z		1,2	
5	14380441	18582657	East Indian Railway	N	24.750112	86.437882				RR	R	IND	IN-BR		1							East Indian Railway		EASTINDIANRAILWAY	24:45:00	86:26:16	45RVH4316237395	2017-09-05T00:00:00.000Z	2017-09-05T00:00:00.000Z		1,2	
5	14381906	18584734	East Indian Railway	N	24.183516	86.310835				RR	R	IND	IN-JH		1							East Indian Railway		EASTINDIANRAILWAY	24:11:01	86:18:39	45RVG3000374717	2017-09-05T00:00:00.000Z	2017-09-05T00:00:00.000Z		1,2	
5	14383126	18585991	Cuttack Sambalpur Road	N	21.171302	84.165913				RD	R	IND	IN-OR		1							Cuttack Sambalpur Road		CUTTACKSAMBALPURROAD	21:10:17	84:09:57	45QTD0570543736	2017-09-05T00:00:00.000Z	2017-09-05T00:00:00.000Z		1,2	
5	14381906	18585294	Giridih Branch	V	24.183516	86.310835				RR	R	IND	IN-JH									Giridih Branch		GIRIDIHBRANCH	24:11:01	86:18:39	45RVG3000374717	2017-09-05T00:00:00.000Z	2017-09-05T00:00:00.000Z		1,2	
